{
    "type": "FeatureCollection",
    "features": [
        {
            "type": "Feature",
            "properties": {},
            "geometry": {
                "type": "Polygon",
                "coordinates": [
                    [
                        [
                            178.113838,
                            -17.252205
                        ],
                        [
                            178.113838,
                            -17.375033
                        ],
                        [
                            178.282942,
                            -17.375033
                        ],
                        [
                            178.282942,
                            -17.252205
                        ],
                        [
                            178.113838,
                            -17.252205
                        ]
                    ]
                ]
            },
            "bbox": [
                178.113838,
                -17.375033,
                178.282942,
                -17.252205
            ]
        }
    ]
}