{
"type": "FeatureCollection",
"name": "tdata",
"crs": { "type": "name", "properties": { "name": "urn:ogc:def:crs:OGC:1.3:CRS84" } },
"features": [
{ "type": "Feature", "properties": { "fid": 1, "id": null, "habitat": "Sand" }, "geometry": { "type": "Point", "coordinates": [ 178.151761973664236, -17.34209580880777 ] } },
{ "type": "Feature", "properties": { "fid": 2, "id": null, "habitat": "Sand" }, "geometry": { "type": "Point", "coordinates": [ 178.152306780936925, -17.342223010261534 ] } },
{ "type": "Feature", "properties": { "fid": 3, "id": null, "habitat": "Sand" }, "geometry": { "type": "Point", "coordinates": [ 178.152393378389235, -17.342266347014291 ] } },
{ "type": "Feature", "properties": { "fid": 4, "id": null, "habitat": "Sand" }, "geometry": { "type": "Point", "coordinates": [ 178.151703961778765, -17.342056885947834 ] } },
{ "type": "Feature", "properties": { "fid": 5, "id": null, "habitat": "Sand" }, "geometry": { "type": "Point", "coordinates": [ 178.151371024001008, -17.341934900848759 ] } },
{ "type": "Feature", "properties": { "fid": 6, "id": null, "habitat": "Sand" }, "geometry": { "type": "Point", "coordinates": [ 178.151831756077343, -17.34210423540523 ] } },
{ "type": "Feature", "properties": { "fid": 7, "id": null, "habitat": "Sand" }, "geometry": { "type": "Point", "coordinates": [ 178.152252972811283, -17.342186093760379 ] } },
{ "type": "Feature", "properties": { "fid": 8, "id": null, "habitat": "Land" }, "geometry": { "type": "Point", "coordinates": [ 178.142148535456784, -17.321595159558974 ] } },
{ "type": "Feature", "properties": { "fid": 9, "id": null, "habitat": "Land" }, "geometry": { "type": "Point", "coordinates": [ 178.145637095606219, -17.32200610193544 ] } },
{ "type": "Feature", "properties": { "fid": 10, "id": null, "habitat": "Land" }, "geometry": { "type": "Point", "coordinates": [ 178.149224303986102, -17.315739130823079 ] } },
{ "type": "Feature", "properties": { "fid": 11, "id": null, "habitat": "Land" }, "geometry": { "type": "Point", "coordinates": [ 178.147645932298957, -17.319643170717836 ] } },
{ "type": "Feature", "properties": { "fid": 12, "id": null, "habitat": "Land" }, "geometry": { "type": "Point", "coordinates": [ 178.150946164008445, -17.318547308243897 ] } },
{ "type": "Feature", "properties": { "fid": 13, "id": null, "habitat": "Land" }, "geometry": { "type": "Point", "coordinates": [ 178.147071978958166, -17.31638980989878 ] } },
{ "type": "Feature", "properties": { "fid": 14, "id": null, "habitat": "Land" }, "geometry": { "type": "Point", "coordinates": [ 178.13735064424867, -17.317622669197767 ] } },
{ "type": "Feature", "properties": { "fid": 15, "id": null, "habitat": "Land" }, "geometry": { "type": "Point", "coordinates": [ 178.131790471259876, -17.317965128646243 ] } },
{ "type": "Feature", "properties": { "fid": 16, "id": null, "habitat": "Land" }, "geometry": { "type": "Point", "coordinates": [ 178.134122156706781, -17.319437697001831 ] } },
{ "type": "Feature", "properties": { "fid": 17, "id": null, "habitat": "Land" }, "geometry": { "type": "Point", "coordinates": [ 178.137314772164899, -17.315396667226306 ] } },
{ "type": "Feature", "properties": { "fid": 18, "id": null, "habitat": "Rock" }, "geometry": { "type": "Point", "coordinates": [ 178.150156978164887, -17.331337670911434 ] } },
{ "type": "Feature", "properties": { "fid": 19, "id": null, "habitat": "Mangrove" }, "geometry": { "type": "Point", "coordinates": [ 178.150318402541984, -17.330378852654391 ] } },
{ "type": "Feature", "properties": { "fid": 20, "id": null, "habitat": "Mangrove" }, "geometry": { "type": "Point", "coordinates": [ 178.150623315254279, -17.329557004448954 ] } },
{ "type": "Feature", "properties": { "fid": 21, "id": null, "habitat": "Mangrove" }, "geometry": { "type": "Point", "coordinates": [ 178.14857860647777, -17.331782834828726 ] } },
{ "type": "Feature", "properties": { "fid": 22, "id": null, "habitat": "Mangrove" }, "geometry": { "type": "Point", "coordinates": [ 178.146892618539198, -17.331731469816432 ] } },
{ "type": "Feature", "properties": { "fid": 23, "id": null, "habitat": "Mangrove" }, "geometry": { "type": "Point", "coordinates": [ 178.145242502684454, -17.330926749414385 ] } },
{ "type": "Feature", "properties": { "fid": 24, "id": null, "habitat": "Mangrove" }, "geometry": { "type": "Point", "coordinates": [ 178.143430962452612, -17.330156269128643 ] } },
{ "type": "Feature", "properties": { "fid": 25, "id": null, "habitat": "Mangrove" }, "geometry": { "type": "Point", "coordinates": [ 178.142552096399555, -17.329848076109073 ] } },
{ "type": "Feature", "properties": { "fid": 26, "id": null, "habitat": "Mangrove" }, "geometry": { "type": "Point", "coordinates": [ 178.141422125759874, -17.329420029390416 ] } },
{ "type": "Feature", "properties": { "fid": 27, "id": null, "habitat": "Mangrove" }, "geometry": { "type": "Point", "coordinates": [ 178.139933434282227, -17.328855006193923 ] } },
{ "type": "Feature", "properties": { "fid": 28, "id": null, "habitat": "Mangrove" }, "geometry": { "type": "Point", "coordinates": [ 178.137799045296191, -17.328221493269808 ] } },
{ "type": "Feature", "properties": { "fid": 29, "id": null, "habitat": "Mangrove" }, "geometry": { "type": "Point", "coordinates": [ 178.136435906111814, -17.327622222276041 ] } },
{ "type": "Feature", "properties": { "fid": 30, "id": null, "habitat": "Mangrove" }, "geometry": { "type": "Point", "coordinates": [ 178.135539104016885, -17.326834605995899 ] } },
{ "type": "Feature", "properties": { "fid": 31, "id": null, "habitat": "Mangrove" }, "geometry": { "type": "Point", "coordinates": [ 178.134319453167734, -17.326475040918904 ] } },
{ "type": "Feature", "properties": { "fid": 32, "id": null, "habitat": "Mangrove" }, "geometry": { "type": "Point", "coordinates": [ 178.13333297086325, -17.325858642006278 ] } },
{ "type": "Feature", "properties": { "fid": 33, "id": null, "habitat": "Mangrove" }, "geometry": { "type": "Point", "coordinates": [ 178.132579657103463, -17.32505389586801 ] } },
{ "type": "Feature", "properties": { "fid": 34, "id": null, "habitat": "Mangrove" }, "geometry": { "type": "Point", "coordinates": [ 178.132346488558795, -17.324471736889201 ] } },
{ "type": "Feature", "properties": { "fid": 35, "id": null, "habitat": "Mangrove" }, "geometry": { "type": "Point", "coordinates": [ 178.131557302715237, -17.323821086435274 ] } },
{ "type": "Feature", "properties": { "fid": 36, "id": null, "habitat": "Mangrove" }, "geometry": { "type": "Point", "coordinates": [ 178.131037157500117, -17.322999208883395 ] } },
{ "type": "Feature", "properties": { "fid": 37, "id": null, "habitat": "Mangrove" }, "geometry": { "type": "Point", "coordinates": [ 178.130463204159355, -17.322468411010153 ] } },
{ "type": "Feature", "properties": { "fid": 38, "id": null, "habitat": "Mangrove" }, "geometry": { "type": "Point", "coordinates": [ 178.129709890399567, -17.321869121245417 ] } },
{ "type": "Feature", "properties": { "fid": 39, "id": null, "habitat": "Mangrove" }, "geometry": { "type": "Point", "coordinates": [ 178.12893864059788, -17.321338320106882 ] } },
{ "type": "Feature", "properties": { "fid": 40, "id": null, "habitat": "Mangrove" }, "geometry": { "type": "Point", "coordinates": [ 178.128203262879993, -17.320773272048374 ] } },
{ "type": "Feature", "properties": { "fid": 41, "id": null, "habitat": "Mangrove" }, "geometry": { "type": "Point", "coordinates": [ 178.127485821204004, -17.320139731249508 ] } },
{ "type": "Feature", "properties": { "fid": 42, "id": null, "habitat": "Mangrove" }, "geometry": { "type": "Point", "coordinates": [ 178.126929803905142, -17.319523311078086 ] } },
{ "type": "Feature", "properties": { "fid": 43, "id": null, "habitat": "Mangrove" }, "geometry": { "type": "Point", "coordinates": [ 178.126642827234775, -17.318495939530063 ] } },
{ "type": "Feature", "properties": { "fid": 44, "id": null, "habitat": "Mangrove" }, "geometry": { "type": "Point", "coordinates": [ 178.126893931821371, -17.317759653053734 ] } },
{ "type": "Feature", "properties": { "fid": 45, "id": null, "habitat": "Mangrove" }, "geometry": { "type": "Point", "coordinates": [ 178.127485821204033, -17.317211717017123 ] } },
{ "type": "Feature", "properties": { "fid": 46, "id": null, "habitat": "Land" }, "geometry": { "type": "Point", "coordinates": [ 178.129656082273868, -17.31676651778433 ] } },
{ "type": "Feature", "properties": { "fid": 47, "id": null, "habitat": "Mangrove" }, "geometry": { "type": "Point", "coordinates": [ 178.128759280178883, -17.316406933001229 ] } },
{ "type": "Feature", "properties": { "fid": 48, "id": null, "habitat": "Mangrove" }, "geometry": { "type": "Point", "coordinates": [ 178.132507912935893, -17.314249409527406 ] } },
{ "type": "Feature", "properties": { "fid": 49, "id": null, "habitat": "Mangrove" }, "geometry": { "type": "Point", "coordinates": [ 178.133799307952614, -17.313735709729105 ] } },
{ "type": "Feature", "properties": { "fid": 50, "id": null, "habitat": "Mangrove" }, "geometry": { "type": "Point", "coordinates": [ 178.135072766927465, -17.313393242399272 ] } },
{ "type": "Feature", "properties": { "fid": 51, "id": null, "habitat": "Mangrove" }, "geometry": { "type": "Point", "coordinates": [ 178.1363641619443, -17.31318776169509 ] } },
{ "type": "Feature", "properties": { "fid": 52, "id": null, "habitat": "Mangrove" }, "geometry": { "type": "Point", "coordinates": [ 178.137870789463847, -17.313444612539424 ] } },
{ "type": "Feature", "properties": { "fid": 53, "id": null, "habitat": "Mangrove" }, "geometry": { "type": "Point", "coordinates": [ 178.14029215512025, -17.314574751990389 ] } },
{ "type": "Feature", "properties": { "fid": 54, "id": null, "habitat": "Mangrove" }, "geometry": { "type": "Point", "coordinates": [ 178.139000760103499, -17.314078176420836 ] } },
{ "type": "Feature", "properties": { "fid": 55, "id": null, "habitat": "Mangrove" }, "geometry": { "type": "Point", "coordinates": [ 178.141206893257134, -17.314865847390152 ] } },
{ "type": "Feature", "properties": { "fid": 56, "id": null, "habitat": "Mangrove" }, "geometry": { "type": "Point", "coordinates": [ 178.143413026410741, -17.316389809898773 ] } },
{ "type": "Feature", "properties": { "fid": 57, "id": null, "habitat": "Mangrove" }, "geometry": { "type": "Point", "coordinates": [ 178.142480352231985, -17.315516529557758 ] } },
{ "type": "Feature", "properties": { "fid": 58, "id": null, "habitat": "Mangrove" }, "geometry": { "type": "Point", "coordinates": [ 178.143753811206835, -17.314865847390152 ] } },
{ "type": "Feature", "properties": { "fid": 59, "id": null, "habitat": "Mangrove" }, "geometry": { "type": "Point", "coordinates": [ 178.145152822475012, -17.316509671582487 ] } },
{ "type": "Feature", "properties": { "fid": 60, "id": null, "habitat": "Mangrove" }, "geometry": { "type": "Point", "coordinates": [ 178.143717939123036, -17.317434316229047 ] } },
{ "type": "Feature", "properties": { "fid": 61, "id": null, "habitat": "Mangrove" }, "geometry": { "type": "Point", "coordinates": [ 178.142785264944251, -17.317382947204074 ] } },
{ "type": "Feature", "properties": { "fid": 62, "id": null, "habitat": "Mangrove" }, "geometry": { "type": "Point", "coordinates": [ 178.144722357469419, -17.315311051227393 ] } },
{ "type": "Feature", "properties": { "fid": 63, "id": null, "habitat": "Mangrove" }, "geometry": { "type": "Point", "coordinates": [ 178.145099014349313, -17.31387269648237 ] } },
{ "type": "Feature", "properties": { "fid": 64, "id": null, "habitat": "Mangrove" }, "geometry": { "type": "Point", "coordinates": [ 178.14608549665374, -17.312982280761194 ] } },
{ "type": "Feature", "properties": { "fid": 65, "id": null, "habitat": "Mangrove" }, "geometry": { "type": "Point", "coordinates": [ 178.148435118142572, -17.312297342655881 ] } },
{ "type": "Feature", "properties": { "fid": 66, "id": null, "habitat": "Sand" }, "geometry": { "type": "Point", "coordinates": [ 178.148704158771068, -17.311766513868807 ] } },
{ "type": "Feature", "properties": { "fid": 67, "id": null, "habitat": "Mangrove" }, "geometry": { "type": "Point", "coordinates": [ 178.149403664405156, -17.311937749128898 ] } },
{ "type": "Feature", "properties": { "fid": 68, "id": null, "habitat": "Mangrove" }, "geometry": { "type": "Point", "coordinates": [ 178.15044395483531, -17.310927458788658 ] } },
{ "type": "Feature", "properties": { "fid": 69, "id": null, "habitat": "Mangrove" }, "geometry": { "type": "Point", "coordinates": [ 178.150766803589477, -17.310225389350187 ] } },
{ "type": "Feature", "properties": { "fid": 70, "id": null, "habitat": "Mangrove" }, "geometry": { "type": "Point", "coordinates": [ 178.15119726859507, -17.309608935925279 ] } },
{ "type": "Feature", "properties": { "fid": 71, "id": null, "habitat": "Mangrove" }, "geometry": { "type": "Point", "coordinates": [ 178.151681541726362, -17.309078099375277 ] } },
{ "type": "Feature", "properties": { "fid": 72, "id": null, "habitat": "Mangrove" }, "geometry": { "type": "Point", "coordinates": [ 178.153062616952639, -17.309129470721292 ] } },
{ "type": "Feature", "properties": { "fid": 73, "id": null, "habitat": "Mangrove" }, "geometry": { "type": "Point", "coordinates": [ 178.154156715508492, -17.309454822246078 ] } },
{ "type": "Feature", "properties": { "fid": 74, "id": null, "habitat": "Mangrove" }, "geometry": { "type": "Point", "coordinates": [ 178.154927965310179, -17.309266460907168 ] } },
{ "type": "Feature", "properties": { "fid": 75, "id": null, "habitat": "Mangrove" }, "geometry": { "type": "Point", "coordinates": [ 178.157152034505742, -17.309728802030897 ] } },
{ "type": "Feature", "properties": { "fid": 76, "id": null, "habitat": "Mangrove" }, "geometry": { "type": "Point", "coordinates": [ 178.15819568794393, -17.313885538985261 ] } },
{ "type": "Feature", "properties": { "fid": 77, "id": null, "habitat": "Mangrove" }, "geometry": { "type": "Point", "coordinates": [ 178.157155397513748, -17.315255400806716 ] } },
{ "type": "Feature", "properties": { "fid": 78, "id": null, "habitat": "Mangrove" }, "geometry": { "type": "Point", "coordinates": [ 178.155505281659003, -17.31751565048922 ] } },
{ "type": "Feature", "properties": { "fid": 79, "id": null, "habitat": "Mangrove" }, "geometry": { "type": "Point", "coordinates": [ 178.154931328318213, -17.318200569146846 ] } },
{ "type": "Feature", "properties": { "fid": 80, "id": null, "habitat": "Mangrove" }, "geometry": { "type": "Point", "coordinates": [ 178.150285893466247, -17.328217212769644 ] } },
{ "type": "Feature", "properties": { "fid": 81, "id": null, "habitat": "Mangrove" }, "geometry": { "type": "Point", "coordinates": [ 178.149550515748388, -17.327104279341658 ] } },
{ "type": "Feature", "properties": { "fid": 82, "id": null, "habitat": "Coral" }, "geometry": { "type": "Point", "coordinates": [ 178.153048043918801, -17.326539249019998 ] } },
{ "type": "Feature", "properties": { "fid": 83, "id": null, "habitat": "Coral" }, "geometry": { "type": "Point", "coordinates": [ 178.153263276421569, -17.325306449557008 ] } },
{ "type": "Feature", "properties": { "fid": 84, "id": null, "habitat": "Coral" }, "geometry": { "type": "Point", "coordinates": [ 178.153783421636689, -17.323970907467732 ] } },
{ "type": "Feature", "properties": { "fid": 85, "id": null, "habitat": "Coral" }, "geometry": { "type": "Point", "coordinates": [ 178.154357374977423, -17.322857948308837 ] } },
{ "type": "Feature", "properties": { "fid": 86, "id": null, "habitat": "Coral" }, "geometry": { "type": "Point", "coordinates": [ 178.154769903941144, -17.321676491977275 ] } },
{ "type": "Feature", "properties": { "fid": 87, "id": null, "habitat": "Coral" }, "geometry": { "type": "Point", "coordinates": [ 178.155666706036101, -17.32047790532614 ] } },
{ "type": "Feature", "properties": { "fid": 88, "id": null, "habitat": "Coral" }, "geometry": { "type": "Point", "coordinates": [ 178.156150979167336, -17.319193696665621 ] } },
{ "type": "Feature", "properties": { "fid": 89, "id": null, "habitat": "Coral" }, "geometry": { "type": "Point", "coordinates": [ 178.15708365334612, -17.317173190203068 ] } },
{ "type": "Feature", "properties": { "fid": 90, "id": null, "habitat": "Coral" }, "geometry": { "type": "Point", "coordinates": [ 178.15769347877071, -17.315906081595113 ] } },
{ "type": "Feature", "properties": { "fid": 91, "id": null, "habitat": "Coral" }, "geometry": { "type": "Point", "coordinates": [ 178.158518536698068, -17.314467731506923 ] } },
{ "type": "Feature", "properties": { "fid": 92, "id": null, "habitat": "Coral" }, "geometry": { "type": "Point", "coordinates": [ 178.159325658583526, -17.311385514842812 ] } },
{ "type": "Feature", "properties": { "fid": 93, "id": null, "habitat": "Coral" }, "geometry": { "type": "Point", "coordinates": [ 178.159262882436934, -17.312995123326292 ] } },
{ "type": "Feature", "properties": { "fid": 94, "id": null, "habitat": "Coral" }, "geometry": { "type": "Point", "coordinates": [ 178.15641105177491, -17.308731342414212 ] } },
{ "type": "Feature", "properties": { "fid": 95, "id": null, "habitat": "Coral" }, "geometry": { "type": "Point", "coordinates": [ 178.158294336174379, -17.30963890245901 ] } },
{ "type": "Feature", "properties": { "fid": 96, "id": null, "habitat": "Coral" }, "geometry": { "type": "Point", "coordinates": [ 178.154778871962094, -17.308217627195695 ] } },
{ "type": "Feature", "properties": { "fid": 97, "id": null, "habitat": "Coral" }, "geometry": { "type": "Point", "coordinates": [ 178.15312875610735, -17.308491608824191 ] } },
{ "type": "Feature", "properties": { "fid": 98, "id": null, "habitat": "Coral" }, "geometry": { "type": "Point", "coordinates": [ 178.151658000671603, -17.30871421859672 ] } },
{ "type": "Feature", "properties": { "fid": 99, "id": null, "habitat": "Coral" }, "geometry": { "type": "Point", "coordinates": [ 178.150187245235827, -17.309810139700918 ] } },
{ "type": "Feature", "properties": { "fid": 100, "id": null, "habitat": "Coral" }, "geometry": { "type": "Point", "coordinates": [ 178.149021402512375, -17.310529334375236 ] } },
{ "type": "Feature", "properties": { "fid": 101, "id": null, "habitat": "Coral" }, "geometry": { "type": "Point", "coordinates": [ 178.147945239998393, -17.311128661121238 ] } },
{ "type": "Feature", "properties": { "fid": 102, "id": null, "habitat": "Coral" }, "geometry": { "type": "Point", "coordinates": [ 178.147138118112906, -17.312019085821564 ] } },
{ "type": "Feature", "properties": { "fid": 103, "id": null, "habitat": "Coral" }, "geometry": { "type": "Point", "coordinates": [ 178.144362515628984, -17.312622688574145 ] } },
{ "type": "Feature", "properties": { "fid": 104, "id": null, "habitat": "Coral" }, "geometry": { "type": "Point", "coordinates": [ 178.142985924413239, -17.313260536137431 ] } },
{ "type": "Feature", "properties": { "fid": 105, "id": null, "habitat": "Coral" }, "geometry": { "type": "Point", "coordinates": [ 178.141210256265168, -17.313431770005739 ] } },
{ "type": "Feature", "properties": { "fid": 106, "id": null, "habitat": "Coral" }, "geometry": { "type": "Point", "coordinates": [ 178.139613948536123, -17.313414646626086 ] } },
{ "type": "Feature", "properties": { "fid": 107, "id": null, "habitat": "Coral" }, "geometry": { "type": "Point", "coordinates": [ 178.153048043918744, -17.32784908938228 ] } },
{ "type": "Feature", "properties": { "fid": 108, "id": null, "habitat": "Coral" }, "geometry": { "type": "Point", "coordinates": [ 178.151774584943951, -17.330229036849438 ] } },
{ "type": "Feature", "properties": { "fid": 109, "id": null, "habitat": "Coral" }, "geometry": { "type": "Point", "coordinates": [ 178.151115435404108, -17.331604127328152 ] } },
{ "type": "Feature", "properties": { "fid": 110, "id": null, "habitat": "Seagrass" }, "geometry": { "type": "Point", "coordinates": [ 178.154236306694628, -17.329344050993583 ] } },
{ "type": "Feature", "properties": { "fid": 111, "id": null, "habitat": "Seagrass" }, "geometry": { "type": "Point", "coordinates": [ 178.154523283364995, -17.328179758388952 ] } },
{ "type": "Feature", "properties": { "fid": 112, "id": null, "habitat": "Seagrass" }, "geometry": { "type": "Point", "coordinates": [ 178.15531246920861, -17.326193595144272 ] } },
{ "type": "Feature", "properties": { "fid": 113, "id": null, "habitat": "Seagrass" }, "geometry": { "type": "Point", "coordinates": [ 178.155958166716971, -17.325063527159134 ] } },
{ "type": "Feature", "properties": { "fid": 114, "id": null, "habitat": "Seagrass" }, "geometry": { "type": "Point", "coordinates": [ 178.155707062130347, -17.324001941809176 ] } },
{ "type": "Feature", "properties": { "fid": 115, "id": null, "habitat": "Seagrass" }, "geometry": { "type": "Point", "coordinates": [ 178.155922294633172, -17.322734880295492 ] } },
{ "type": "Feature", "properties": { "fid": 116, "id": null, "habitat": "Seagrass" }, "geometry": { "type": "Point", "coordinates": [ 178.158002875493537, -17.319652802292634 ] } },
{ "type": "Feature", "properties": { "fid": 117, "id": null, "habitat": "Seagrass" }, "geometry": { "type": "Point", "coordinates": [ 178.15861270091807, -17.31715285660351 ] } },
{ "type": "Feature", "properties": { "fid": 118, "id": null, "habitat": "Seagrass" }, "geometry": { "type": "Point", "coordinates": [ 178.15750066632026, -17.318351464945422 ] } },
{ "type": "Feature", "properties": { "fid": 119, "id": null, "habitat": "Seagrass" }, "geometry": { "type": "Point", "coordinates": [ 178.158935549672293, -17.31492684894123 ] } },
{ "type": "Feature", "properties": { "fid": 120, "id": null, "habitat": "Seagrass" }, "geometry": { "type": "Point", "coordinates": [ 178.159904095934849, -17.310782978254434 ] } },
{ "type": "Feature", "properties": { "fid": 121, "id": null, "habitat": "Seagrass" }, "geometry": { "type": "Point", "coordinates": [ 178.159258398426459, -17.30913910284708 ] } },
{ "type": "Feature", "properties": { "fid": 122, "id": null, "habitat": "Seagrass" }, "geometry": { "type": "Point", "coordinates": [ 178.15793113132591, -17.307734947630429 ] } },
{ "type": "Feature", "properties": { "fid": 123, "id": null, "habitat": "Seagrass" }, "geometry": { "type": "Point", "coordinates": [ 178.155707062130375, -17.306810254192669 ] } },
{ "type": "Feature", "properties": { "fid": 124, "id": null, "habitat": "Seagrass" }, "geometry": { "type": "Point", "coordinates": [ 178.153016655845477, -17.307666451979696 ] } },
{ "type": "Feature", "properties": { "fid": 125, "id": null, "habitat": "Seagrass" }, "geometry": { "type": "Point", "coordinates": [ 178.154630899616421, -17.306895874150776 ] } },
{ "type": "Feature", "properties": { "fid": 126, "id": null, "habitat": "Rock" }, "geometry": { "type": "Point", "coordinates": [ 178.155438021501908, -17.307640766104093 ] } },
{ "type": "Feature", "properties": { "fid": 127, "id": null, "habitat": "Rock" }, "geometry": { "type": "Point", "coordinates": [ 178.157115041419502, -17.307966120263259 ] } },
{ "type": "Feature", "properties": { "fid": 128, "id": null, "habitat": "Rock" }, "geometry": { "type": "Point", "coordinates": [ 178.157487214288921, -17.308300035775332 ] } },
{ "type": "Feature", "properties": { "fid": 129, "id": null, "habitat": "Rock" }, "geometry": { "type": "Point", "coordinates": [ 178.15199430145725, -17.307846253008442 ] } },
{ "type": "Feature", "properties": { "fid": 130, "id": null, "habitat": "Rock" }, "geometry": { "type": "Point", "coordinates": [ 178.151375508011682, -17.30798431439332 ] } },
{ "type": "Feature", "properties": { "fid": 131, "id": null, "habitat": "Rock" }, "geometry": { "type": "Point", "coordinates": [ 178.151151307487908, -17.308084917197622 ] } },
{ "type": "Feature", "properties": { "fid": 132, "id": null, "habitat": "Rock" }, "geometry": { "type": "Point", "coordinates": [ 178.15073653651902, -17.308217627195702 ] } },
{ "type": "Feature", "properties": { "fid": 133, "id": null, "habitat": "Rock" }, "geometry": { "type": "Point", "coordinates": [ 178.150521304016195, -17.308335353726715 ] } },
{ "type": "Feature", "properties": { "fid": 134, "id": null, "habitat": "Rock" }, "geometry": { "type": "Point", "coordinates": [ 178.150086355000127, -17.308536558896133 ] } },
{ "type": "Feature", "properties": { "fid": 135, "id": null, "habitat": "Rock" }, "geometry": { "type": "Point", "coordinates": [ 178.149512401659365, -17.308671409046017 ] } },
{ "type": "Feature", "properties": { "fid": 136, "id": null, "habitat": "Rock" }, "geometry": { "type": "Point", "coordinates": [ 178.149057274596146, -17.30898391853697 ] } },
{ "type": "Feature", "properties": { "fid": 137, "id": null, "habitat": "Rock" }, "geometry": { "type": "Point", "coordinates": [ 178.148866704150947, -17.309020306593855 ] } },
{ "type": "Feature", "properties": { "fid": 138, "id": null, "habitat": "Rock" }, "geometry": { "type": "Point", "coordinates": [ 178.141868284802371, -17.312447173084507 ] } },
{ "type": "Feature", "properties": { "fid": 139, "id": null, "habitat": "Rock" }, "geometry": { "type": "Point", "coordinates": [ 178.140971482707386, -17.312789642177044 ] } },
{ "type": "Feature", "properties": { "fid": 140, "id": null, "habitat": "Coral" }, "geometry": { "type": "Point", "coordinates": [ 178.140361657282796, -17.313628688757081 ] } },
{ "type": "Feature", "properties": { "fid": 141, "id": null, "habitat": "Coral" }, "geometry": { "type": "Point", "coordinates": [ 178.145132644428088, -17.311128661121238 ] } },
{ "type": "Feature", "properties": { "fid": 142, "id": null, "habitat": "Coral" }, "geometry": { "type": "Point", "coordinates": [ 178.144307586500673, -17.311008795928348 ] } },
{ "type": "Feature", "properties": { "fid": 143, "id": null, "habitat": "Coral" }, "geometry": { "type": "Point", "coordinates": [ 178.147554010084491, -17.310272479457389 ] } },
{ "type": "Feature", "properties": { "fid": 144, "id": null, "habitat": "Seagrass" }, "geometry": { "type": "Point", "coordinates": [ 178.133922618240888, -17.312755395296506 ] } },
{ "type": "Feature", "properties": { "fid": 145, "id": null, "habitat": "Seagrass" }, "geometry": { "type": "Point", "coordinates": [ 178.133366600942026, -17.313063616991666 ] } },
{ "type": "Feature", "properties": { "fid": 146, "id": null, "habitat": "Seagrass" }, "geometry": { "type": "Point", "coordinates": [ 178.131788229254852, -17.313885538985257 ] } },
{ "type": "Feature", "properties": { "fid": 147, "id": null, "habitat": "Seagrass" }, "geometry": { "type": "Point", "coordinates": [ 178.130730002782798, -17.314399238364796 ] } },
{ "type": "Feature", "properties": { "fid": 148, "id": null, "habitat": "Seagrass" }, "geometry": { "type": "Point", "coordinates": [ 178.129052982865176, -17.315246839202043 ] } },
{ "type": "Feature", "properties": { "fid": 149, "id": null, "habitat": "Rock" }, "geometry": { "type": "Point", "coordinates": [ 178.090194548090182, -17.359059905443196 ] } },
{ "type": "Feature", "properties": { "fid": 150, "id": null, "habitat": "Rock" }, "geometry": { "type": "Point", "coordinates": [ 178.090768501430944, -17.357074076458169 ] } },
{ "type": "Feature", "properties": { "fid": 151, "id": null, "habitat": "Rock" }, "geometry": { "type": "Point", "coordinates": [ 178.090158676006354, -17.355567571153497 ] } },
{ "type": "Feature", "properties": { "fid": 152, "id": null, "habitat": "Rock" }, "geometry": { "type": "Point", "coordinates": [ 178.088293327648785, -17.357211030871959 ] } },
{ "type": "Feature", "properties": { "fid": 153, "id": null, "habitat": "Rock" }, "geometry": { "type": "Point", "coordinates": [ 178.093710012302466, -17.358409377627929 ] } },
{ "type": "Feature", "properties": { "fid": 154, "id": null, "habitat": "Rock" }, "geometry": { "type": "Point", "coordinates": [ 178.089764083084589, -17.361011475035738 ] } },
{ "type": "Feature", "properties": { "fid": 155, "id": null, "habitat": "Rock" }, "geometry": { "type": "Point", "coordinates": [ 178.09037390850915, -17.362620648365596 ] } },
{ "type": "Feature", "properties": { "fid": 156, "id": null, "habitat": "Rock" }, "geometry": { "type": "Point", "coordinates": [ 178.096364546503565, -17.358203947311864 ] } },
{ "type": "Feature", "properties": { "fid": 157, "id": null, "habitat": "Rock" }, "geometry": { "type": "Point", "coordinates": [ 178.095969953581772, -17.356320825353365 ] } },
{ "type": "Feature", "properties": { "fid": 158, "id": null, "habitat": "Rock" }, "geometry": { "type": "Point", "coordinates": [ 178.094768238774492, -17.352999635849127 ] } },
{ "type": "Feature", "properties": { "fid": 159, "id": null, "habitat": "Rock" }, "geometry": { "type": "Point", "coordinates": [ 178.09557536065995, -17.351972451657051 ] } },
{ "type": "Feature", "properties": { "fid": 160, "id": null, "habitat": "Rock" }, "geometry": { "type": "Point", "coordinates": [ 178.094696494606893, -17.350106385653472 ] } },
{ "type": "Feature", "properties": { "fid": 161, "id": null, "habitat": "Sand" }, "geometry": { "type": "Point", "coordinates": [ 178.100911333125055, -17.351981011549093 ] } },
{ "type": "Feature", "properties": { "fid": 162, "id": null, "habitat": "Sand" }, "geometry": { "type": "Point", "coordinates": [ 178.102236358220409, -17.35180125373228 ] } },
{ "type": "Feature", "properties": { "fid": 163, "id": null, "habitat": "Sand" }, "geometry": { "type": "Point", "coordinates": [ 178.102056997801412, -17.352274187610355 ] } },
{ "type": "Feature", "properties": { "fid": 164, "id": null, "habitat": "Sand" }, "geometry": { "type": "Point", "coordinates": [ 178.101402332272073, -17.352145789393042 ] } },
{ "type": "Feature", "properties": { "fid": 165, "id": null, "habitat": "Sand" }, "geometry": { "type": "Point", "coordinates": [ 178.101906783450488, -17.351296218922975 ] } },
{ "type": "Feature", "properties": { "fid": 166, "id": null, "habitat": "Sand" }, "geometry": { "type": "Point", "coordinates": [ 178.101326104094028, -17.351125020366869 ] } },
{ "type": "Feature", "properties": { "fid": 167, "id": null, "habitat": "Coral" }, "geometry": { "type": "Point", "coordinates": [ 178.098469789421614, -17.353975455501661 ] } },
{ "type": "Feature", "properties": { "fid": 168, "id": null, "habitat": "Coral" }, "geometry": { "type": "Point", "coordinates": [ 178.096963161902067, -17.349969425932755 ] } },
{ "type": "Feature", "properties": { "fid": 169, "id": null, "habitat": "Coral" }, "geometry": { "type": "Point", "coordinates": [ 178.096855545650641, -17.353958335903389 ] } },
{ "type": "Feature", "properties": { "fid": 170, "id": null, "habitat": "Coral" }, "geometry": { "type": "Point", "coordinates": [ 178.097716475661827, -17.360087049924381 ] } },
{ "type": "Feature", "properties": { "fid": 171, "id": null, "habitat": "Coral" }, "geometry": { "type": "Point", "coordinates": [ 178.093537377899224, -17.362158440451324 ] } },
{ "type": "Feature", "properties": { "fid": 172, "id": null, "habitat": "Coral" }, "geometry": { "type": "Point", "coordinates": [ 178.097465371075259, -17.363630654195156 ] } },
{ "type": "Feature", "properties": { "fid": 173, "id": null, "habitat": "Coral" }, "geometry": { "type": "Point", "coordinates": [ 178.093662930192551, -17.36462353585549 ] } },
{ "type": "Feature", "properties": { "fid": 174, "id": null, "habitat": "Coral" }, "geometry": { "type": "Point", "coordinates": [ 178.092263918924374, -17.360669095908534 ] } },
{ "type": "Feature", "properties": { "fid": 175, "id": null, "habitat": "Coral" }, "geometry": { "type": "Point", "coordinates": [ 178.095295110005424, -17.360343835145247 ] } },
{ "type": "Feature", "properties": { "fid": 176, "id": null, "habitat": "Seagrass" }, "geometry": { "type": "Point", "coordinates": [ 178.089008527319663, -17.34990094603404 ] } },
{ "type": "Feature", "properties": { "fid": 177, "id": null, "habitat": "Seagrass" }, "geometry": { "type": "Point", "coordinates": [ 178.090120561917416, -17.351039421028883 ] } },
{ "type": "Feature", "properties": { "fid": 178, "id": null, "habitat": "Seagrass" }, "geometry": { "type": "Point", "coordinates": [ 178.091169820368549, -17.352554523405708 ] } },
{ "type": "Feature", "properties": { "fid": 179, "id": null, "habitat": "Seagrass" }, "geometry": { "type": "Point", "coordinates": [ 178.088335925748424, -17.350637103605127 ] } },
{ "type": "Feature", "properties": { "fid": 180, "id": null, "habitat": "Seagrass" }, "geometry": { "type": "Point", "coordinates": [ 178.086300184992865, -17.350037905805902 ] } },
{ "type": "Feature", "properties": { "fid": 181, "id": null, "habitat": "Seagrass" }, "geometry": { "type": "Point", "coordinates": [ 178.086703745935608, -17.348723943778296 ] } },
{ "type": "Feature", "properties": { "fid": 182, "id": null, "habitat": "Seagrass" }, "geometry": { "type": "Point", "coordinates": [ 178.087627452093386, -17.347842257140162 ] } },
{ "type": "Feature", "properties": { "fid": 183, "id": null, "habitat": "Seagrass" }, "geometry": { "type": "Point", "coordinates": [ 178.086497481453733, -17.351103620536122 ] } },
{ "type": "Feature", "properties": { "fid": 184, "id": null, "habitat": "Deep Water" }, "geometry": { "type": "Point", "coordinates": [ 178.089672160869924, -17.346292875207197 ] } },
{ "type": "Feature", "properties": { "fid": 185, "id": null, "habitat": "Deep Water" }, "geometry": { "type": "Point", "coordinates": [ 178.088434573978844, -17.343262554483754 ] } },
{ "type": "Feature", "properties": { "fid": 186, "id": null, "habitat": "Deep Water" }, "geometry": { "type": "Point", "coordinates": [ 178.083035825367148, -17.342988624719847 ] } },
{ "type": "Feature", "properties": { "fid": 187, "id": null, "habitat": "Seagrass" }, "geometry": { "type": "Point", "coordinates": [ 178.081457453679974, -17.34500884711381 ] } },
{ "type": "Feature", "properties": { "fid": 188, "id": null, "habitat": "Seagrass" }, "geometry": { "type": "Point", "coordinates": [ 178.081887918685567, -17.346977686515249 ] } },
{ "type": "Feature", "properties": { "fid": 189, "id": null, "habitat": "Seagrass" }, "geometry": { "type": "Point", "coordinates": [ 178.081995534936937, -17.348586983025193 ] } },
{ "type": "Feature", "properties": { "fid": 190, "id": null, "habitat": "Seagrass" }, "geometry": { "type": "Point", "coordinates": [ 178.082569488277727, -17.350470184414938 ] } },
{ "type": "Feature", "properties": { "fid": 191, "id": null, "habitat": "Seagrass" }, "geometry": { "type": "Point", "coordinates": [ 178.083322802037515, -17.352969676391666 ] } },
{ "type": "Feature", "properties": { "fid": 192, "id": null, "habitat": "Rock" }, "geometry": { "type": "Point", "coordinates": [ 178.081098732841951, -17.355417775915267 ] } },
{ "type": "Feature", "properties": { "fid": 193, "id": null, "habitat": "Rock" }, "geometry": { "type": "Point", "coordinates": [ 178.080829692213456, -17.353500386056393 ] } },
{ "type": "Feature", "properties": { "fid": 194, "id": null, "habitat": "Rock" }, "geometry": { "type": "Point", "coordinates": [ 178.081296029302877, -17.351480257192531 ] } },
{ "type": "Feature", "properties": { "fid": 195, "id": null, "habitat": "Rock" }, "geometry": { "type": "Point", "coordinates": [ 178.08056065158496, -17.348176100152219 ] } },
{ "type": "Feature", "properties": { "fid": 196, "id": null, "habitat": "Coral" }, "geometry": { "type": "Point", "coordinates": [ 178.081538165868466, -17.350435944562268 ] } },
{ "type": "Feature", "properties": { "fid": 197, "id": null, "habitat": "Coral" }, "geometry": { "type": "Point", "coordinates": [ 178.080542715543061, -17.346652401462709 ] } },
{ "type": "Feature", "properties": { "fid": 198, "id": null, "habitat": "Coral" }, "geometry": { "type": "Point", "coordinates": [ 178.080722075962001, -17.360005734529437 ] } },
{ "type": "Feature", "properties": { "fid": 199, "id": null, "habitat": "Coral" }, "geometry": { "type": "Point", "coordinates": [ 178.080578587626775, -17.363600696475245 ] } },
{ "type": "Feature", "properties": { "fid": 200, "id": null, "habitat": "Coral" }, "geometry": { "type": "Point", "coordinates": [ 178.086667873851667, -17.36396018879099 ] } },
{ "type": "Feature", "properties": { "fid": 201, "id": null, "habitat": "Rock" }, "geometry": { "type": "Point", "coordinates": [ 178.087131968935807, -17.364090718564437 ] } },
{ "type": "Feature", "properties": { "fid": 202, "id": null, "habitat": "Coral" }, "geometry": { "type": "Point", "coordinates": [ 178.086001998296126, -17.366127826913143 ] } },
{ "type": "Feature", "properties": { "fid": 203, "id": null, "habitat": "Coral" }, "geometry": { "type": "Point", "coordinates": [ 178.084755443384125, -17.365776898098137 ] } },
{ "type": "Feature", "properties": { "fid": 204, "id": null, "habitat": "Coral" }, "geometry": { "type": "Point", "coordinates": [ 178.086315879029371, -17.367454502944533 ] } },
{ "type": "Feature", "properties": { "fid": 205, "id": null, "habitat": "Coral" }, "geometry": { "type": "Point", "coordinates": [ 178.085912318086656, -17.3648524970267 ] } },
{ "type": "Feature", "properties": { "fid": 206, "id": null, "habitat": "Rock" }, "geometry": { "type": "Point", "coordinates": [ 178.087647630140424, -17.364745505860807 ] } },
{ "type": "Feature", "properties": { "fid": 207, "id": null, "habitat": "Coral" }, "geometry": { "type": "Point", "coordinates": [ 178.087320297375783, -17.368169192179561 ] } },
{ "type": "Feature", "properties": { "fid": 208, "id": null, "habitat": "Coral" }, "geometry": { "type": "Point", "coordinates": [ 178.085311460683016, -17.363718387489605 ] } },
{ "type": "Feature", "properties": { "fid": 209, "id": null, "habitat": "Coral" }, "geometry": { "type": "Point", "coordinates": [ 178.08376896107967, -17.36378686222681 ] } },
{ "type": "Feature", "properties": { "fid": 210, "id": null, "habitat": "Coral" }, "geometry": { "type": "Point", "coordinates": [ 178.083392304199776, -17.363393132138441 ] } },
{ "type": "Feature", "properties": { "fid": 211, "id": null, "habitat": "Coral" }, "geometry": { "type": "Point", "coordinates": [ 178.087123000914858, -17.366132106528692 ] } },
{ "type": "Feature", "properties": { "fid": 212, "id": null, "habitat": "Coral" }, "geometry": { "type": "Point", "coordinates": [ 178.085221780473546, -17.367501578369147 ] } },
{ "type": "Feature", "properties": { "fid": 213, "id": null, "habitat": "Coral" }, "geometry": { "type": "Point", "coordinates": [ 178.086674599867393, -17.368699857831714 ] } },
{ "type": "Feature", "properties": { "fid": 214, "id": null, "habitat": "Rock" }, "geometry": { "type": "Point", "coordinates": [ 178.099126696956063, -17.356819426573036 ] } },
{ "type": "Feature", "properties": { "fid": 215, "id": null, "habitat": "Rock" }, "geometry": { "type": "Point", "coordinates": [ 178.098247830903006, -17.356271607133689 ] } },
{ "type": "Feature", "properties": { "fid": 216, "id": null, "habitat": "Rock" }, "geometry": { "type": "Point", "coordinates": [ 178.100866493020334, -17.357414322391275 ] } },
{ "type": "Feature", "properties": { "fid": 217, "id": null, "habitat": "Rock" }, "geometry": { "type": "Point", "coordinates": [ 178.102969493933045, -17.359340230862312 ] } },
{ "type": "Feature", "properties": { "fid": 218, "id": null, "habitat": "Rock" }, "geometry": { "type": "Point", "coordinates": [ 178.100933753177458, -17.359040646429214 ] } },
{ "type": "Feature", "properties": { "fid": 219, "id": null, "habitat": "Rock" }, "geometry": { "type": "Point", "coordinates": [ 178.101265569952574, -17.360949418866404 ] } },
{ "type": "Feature", "properties": { "fid": 220, "id": null, "habitat": "Coral" }, "geometry": { "type": "Point", "coordinates": [ 178.10839514660762, -17.355796543638267 ] } },
{ "type": "Feature", "properties": { "fid": 221, "id": null, "habitat": "Coral" }, "geometry": { "type": "Point", "coordinates": [ 178.108753867445586, -17.35473513606556 ] } },
{ "type": "Feature", "properties": { "fid": 222, "id": null, "habitat": "Coral" }, "geometry": { "type": "Point", "coordinates": [ 178.106673286585277, -17.355753745064714 ] } },
{ "type": "Feature", "properties": { "fid": 223, "id": null, "habitat": "Coral" }, "geometry": { "type": "Point", "coordinates": [ 178.10778532118303, -17.35746568021311 ] } },
{ "type": "Feature", "properties": { "fid": 224, "id": null, "habitat": "Rock" }, "geometry": { "type": "Point", "coordinates": [ 178.107033128425741, -17.354605134614836 ] } },
{ "type": "Feature", "properties": { "fid": 225, "id": null, "habitat": "Rock" }, "geometry": { "type": "Point", "coordinates": [ 178.107920962499747, -17.353786604844817 ] } },
{ "type": "Feature", "properties": { "fid": 226, "id": null, "habitat": "Rock" }, "geometry": { "type": "Point", "coordinates": [ 178.108423171672939, -17.353281575503718 ] } },
{ "type": "Feature", "properties": { "fid": 227, "id": null, "habitat": "Rock" }, "geometry": { "type": "Point", "coordinates": [ 178.109252713610744, -17.353623968429201 ] } },
{ "type": "Feature", "properties": { "fid": 228, "id": null, "habitat": "Rock" }, "geometry": { "type": "Point", "coordinates": [ 178.105862801691757, -17.356149096507735 ] } },
{ "type": "Feature", "properties": { "fid": 229, "id": null, "habitat": "Rock" }, "geometry": { "type": "Point", "coordinates": [ 178.1075667256722, -17.357005064234336 ] } },
{ "type": "Feature", "properties": { "fid": 230, "id": null, "habitat": "Rock" }, "geometry": { "type": "Point", "coordinates": [ 178.106537645268219, -17.357610658986694 ] } },
{ "type": "Feature", "properties": { "fid": 231, "id": null, "habitat": "Rock" }, "geometry": { "type": "Point", "coordinates": [ 178.10926168163175, -17.357345310295536 ] } },
{ "type": "Feature", "properties": { "fid": 232, "id": null, "habitat": "Rock" }, "geometry": { "type": "Point", "coordinates": [ 178.110160725731959, -17.355798148584586 ] } },
{ "type": "Feature", "properties": { "fid": 233, "id": null, "habitat": "Coral" }, "geometry": { "type": "Point", "coordinates": [ 178.109326699783622, -17.356187615141323 ] } },
{ "type": "Feature", "properties": { "fid": 234, "id": null, "habitat": "Coral" }, "geometry": { "type": "Point", "coordinates": [ 178.106977078294818, -17.358490158756879 ] } },
{ "type": "Feature", "properties": { "fid": 235, "id": null, "habitat": "Deep Water" }, "geometry": { "type": "Point", "coordinates": [ 178.111209984183091, -17.355434360394117 ] } },
{ "type": "Feature", "properties": { "fid": 236, "id": null, "habitat": "Deep Water" }, "geometry": { "type": "Point", "coordinates": [ 178.111810841586731, -17.3563416895947 ] } },
{ "type": "Feature", "properties": { "fid": 237, "id": null, "habitat": "Deep Water" }, "geometry": { "type": "Point", "coordinates": [ 178.104824753266911, -17.357848188537663 ] } },
{ "type": "Feature", "properties": { "fid": 238, "id": null, "habitat": "Deep Water" }, "geometry": { "type": "Point", "coordinates": [ 178.111505928874436, -17.358481599168744 ] } },
{ "type": "Feature", "properties": { "fid": 239, "id": null, "habitat": "Deep Water" }, "geometry": { "type": "Point", "coordinates": [ 178.105165538062948, -17.359243400947324 ] } },
{ "type": "Feature", "properties": { "fid": 240, "id": null, "habitat": "Deep Water" }, "geometry": { "type": "Point", "coordinates": [ 178.105434578691472, -17.362727105810333 ] } },
{ "type": "Feature", "properties": { "fid": 241, "id": null, "habitat": "Deep Water" }, "geometry": { "type": "Point", "coordinates": [ 178.106833589959592, -17.364952533710301 ] } },
{ "type": "Feature", "properties": { "fid": 242, "id": null, "habitat": "Deep Water" }, "geometry": { "type": "Point", "coordinates": [ 178.109452252076892, -17.365739986339211 ] } },
{ "type": "Feature", "properties": { "fid": 243, "id": null, "habitat": "Deep Water" }, "geometry": { "type": "Point", "coordinates": [ 178.105972659948435, -17.349647891186521 ] } },
{ "type": "Feature", "properties": { "fid": 244, "id": null, "habitat": "Deep Water" }, "geometry": { "type": "Point", "coordinates": [ 178.110994751680266, -17.348381006700041 ] } },
{ "type": "Feature", "properties": { "fid": 245, "id": null, "habitat": "Deep Water" }, "geometry": { "type": "Point", "coordinates": [ 178.102277835317153, -17.344648782622468 ] } },
{ "type": "Feature", "properties": { "fid": 246, "id": null, "habitat": "Deep Water" }, "geometry": { "type": "Point", "coordinates": [ 178.096753534412102, -17.341019207482894 ] } },
{ "type": "Feature", "properties": { "fid": 247, "id": null, "habitat": "Deep Water" }, "geometry": { "type": "Point", "coordinates": [ 178.096610046076904, -17.330712192381867 ] } },
{ "type": "Feature", "properties": { "fid": 248, "id": null, "habitat": "Deep Water" }, "geometry": { "type": "Point", "coordinates": [ 178.083516735490349, -17.332081928729458 ] } },
{ "type": "Feature", "properties": { "fid": 249, "id": null, "habitat": "Deep Water" }, "geometry": { "type": "Point", "coordinates": [ 178.112357890864644, -17.337731983136166 ] } },
{ "type": "Feature", "properties": { "fid": 250, "id": null, "habitat": "Deep Water" }, "geometry": { "type": "Point", "coordinates": [ 178.12480550394281, -17.330369756698317 ] } },
{ "type": "Feature", "properties": { "fid": 251, "id": null, "habitat": "Deep Water" }, "geometry": { "type": "Point", "coordinates": [ 178.116554924669089, -17.33245860443353 ] } },
{ "type": "Feature", "properties": { "fid": 252, "id": null, "habitat": "Deep Water" }, "geometry": { "type": "Point", "coordinates": [ 178.110420798339476, -17.321192242508349 ] } },
{ "type": "Feature", "properties": { "fid": 253, "id": null, "habitat": "Deep Water" }, "geometry": { "type": "Point", "coordinates": [ 178.096502429825534, -17.318452597166619 ] } },
{ "type": "Feature", "properties": { "fid": 254, "id": null, "habitat": "Deep Water" }, "geometry": { "type": "Point", "coordinates": [ 178.105829171613209, -17.31475401116062 ] } },
{ "type": "Feature", "properties": { "fid": 255, "id": null, "habitat": "Deep Water" }, "geometry": { "type": "Point", "coordinates": [ 178.094493593132796, -17.31228824580452 ] } },
{ "type": "Feature", "properties": { "fid": 256, "id": null, "habitat": "Deep Water" }, "geometry": { "type": "Point", "coordinates": [ 178.089041036395344, -17.319959407159917 ] } },
{ "type": "Feature", "properties": { "fid": 257, "id": null, "habitat": "Deep Water" }, "geometry": { "type": "Point", "coordinates": [ 178.150741020529438, -17.303931795027406 ] } },
{ "type": "Feature", "properties": { "fid": 258, "id": null, "habitat": "Deep Water" }, "geometry": { "type": "Point", "coordinates": [ 178.127065445222172, -17.31174029345555 ] } },
{ "type": "Feature", "properties": { "fid": 259, "id": null, "habitat": "Deep Water" }, "geometry": { "type": "Point", "coordinates": [ 178.131513583613184, -17.342560073624277 ] } },
{ "type": "Feature", "properties": { "fid": 260, "id": null, "habitat": "Deep Water" }, "geometry": { "type": "Point", "coordinates": [ 178.212297516328221, -17.237340620075464 ] } },
{ "type": "Feature", "properties": { "fid": 261, "id": null, "habitat": "Deep Water" }, "geometry": { "type": "Point", "coordinates": [ 178.229803093222102, -17.242548204198357 ] } },
{ "type": "Feature", "properties": { "fid": 262, "id": null, "habitat": "Deep Water" }, "geometry": { "type": "Point", "coordinates": [ 178.261944480305885, -17.252962931715849 ] } },
{ "type": "Feature", "properties": { "fid": 263, "id": null, "habitat": "Deep Water" }, "geometry": { "type": "Point", "coordinates": [ 178.299825400797459, -17.27844912628634 ] } },
{ "type": "Feature", "properties": { "fid": 264, "id": null, "habitat": "Deep Water" }, "geometry": { "type": "Point", "coordinates": [ 178.27887610385892, -17.272968521662438 ] } },
{ "type": "Feature", "properties": { "fid": 265, "id": null, "habitat": "Deep Water" }, "geometry": { "type": "Point", "coordinates": [ 178.31560911766897, -17.304753757845667 ] } },
{ "type": "Feature", "properties": { "fid": 266, "id": null, "habitat": "Sand" }, "geometry": { "type": "Point", "coordinates": [ 178.280024010540501, -17.322014128144595 ] } },
{ "type": "Feature", "properties": { "fid": 267, "id": null, "habitat": "Coral" }, "geometry": { "type": "Point", "coordinates": [ 178.267074188289143, -17.343638672223754 ] } },
{ "type": "Feature", "properties": { "fid": 268, "id": null, "habitat": "Coral" }, "geometry": { "type": "Point", "coordinates": [ 178.273315930870154, -17.345967053929499 ] } },
{ "type": "Feature", "properties": { "fid": 269, "id": null, "habitat": "Coral" }, "geometry": { "type": "Point", "coordinates": [ 178.267504653294736, -17.328640446740586 ] } },
{ "type": "Feature", "properties": { "fid": 270, "id": null, "habitat": "Coral" }, "geometry": { "type": "Point", "coordinates": [ 178.25516465646794, -17.329393811496494 ] } },
{ "type": "Feature", "properties": { "fid": 271, "id": null, "habitat": "Deep Water" }, "geometry": { "type": "Point", "coordinates": [ 178.256563667736089, -17.339769384330765 ] } },
{ "type": "Feature", "properties": { "fid": 272, "id": null, "habitat": "Deep Water" }, "geometry": { "type": "Point", "coordinates": [ 178.253980877702588, -17.34103632828889 ] } },
{ "type": "Feature", "properties": { "fid": 273, "id": null, "habitat": "Deep Water" }, "geometry": { "type": "Point", "coordinates": [ 178.261442271132751, -17.333571505407935 ] } },
{ "type": "Feature", "properties": { "fid": 274, "id": null, "habitat": "Deep Water" }, "geometry": { "type": "Point", "coordinates": [ 178.262267329060109, -17.329325323919129 ] } },
{ "type": "Feature", "properties": { "fid": 275, "id": null, "habitat": "Coral" }, "geometry": { "type": "Point", "coordinates": [ 178.255523377305877, -17.325318756189787 ] } },
{ "type": "Feature", "properties": { "fid": 276, "id": null, "habitat": "Coral" }, "geometry": { "type": "Point", "coordinates": [ 178.263917444914824, -17.318264245048617 ] } },
{ "type": "Feature", "properties": { "fid": 277, "id": null, "habitat": "Coral" }, "geometry": { "type": "Point", "coordinates": [ 178.257639830250042, -17.319017652362199 ] } },
{ "type": "Feature", "properties": { "fid": 278, "id": null, "habitat": "Coral" }, "geometry": { "type": "Point", "coordinates": [ 178.270733140836654, -17.333434533344398 ] } },
{ "type": "Feature", "properties": { "fid": 279, "id": null, "habitat": "Coral" }, "geometry": { "type": "Point", "coordinates": [ 178.275719360484686, -17.341858125097911 ] } },
{ "type": "Feature", "properties": { "fid": 280, "id": null, "habitat": "Coral" }, "geometry": { "type": "Point", "coordinates": [ 178.26728942079194, -17.347165474169479 ] } },
{ "type": "Feature", "properties": { "fid": 281, "id": null, "habitat": "Deep Water" }, "geometry": { "type": "Point", "coordinates": [ 178.259899771529405, -17.342029332303181 ] } },
{ "type": "Feature", "properties": { "fid": 282, "id": null, "habitat": "Coral" }, "geometry": { "type": "Point", "coordinates": [ 178.271558198764012, -17.349904691029188 ] } },
{ "type": "Feature", "properties": { "fid": 283, "id": null, "habitat": "Deep Water" }, "geometry": { "type": "Point", "coordinates": [ 178.268186222886925, -17.356855270170712 ] } },
{ "type": "Feature", "properties": { "fid": 284, "id": null, "habitat": "Coral" }, "geometry": { "type": "Point", "coordinates": [ 178.269334129568477, -17.35391072201233 ] } },
{ "type": "Feature", "properties": { "fid": 285, "id": null, "habitat": "Coral" }, "geometry": { "type": "Point", "coordinates": [ 178.269334129568477, -17.359046531128165 ] } },
{ "type": "Feature", "properties": { "fid": 286, "id": null, "habitat": "Coral" }, "geometry": { "type": "Point", "coordinates": [ 178.258662184638354, -17.355879465846105 ] } },
{ "type": "Feature", "properties": { "fid": 287, "id": null, "habitat": "Coral" }, "geometry": { "type": "Point", "coordinates": [ 178.261514015300321, -17.355023492863889 ] } },
{ "type": "Feature", "properties": { "fid": 288, "id": null, "habitat": "Coral" }, "geometry": { "type": "Point", "coordinates": [ 178.259738347152279, -17.35820769213743 ] } },
{ "type": "Feature", "properties": { "fid": 289, "id": null, "habitat": "Coral" }, "geometry": { "type": "Point", "coordinates": [ 178.256868580448383, -17.364849822248335 ] } },
{ "type": "Feature", "properties": { "fid": 290, "id": null, "habitat": "Coral" }, "geometry": { "type": "Point", "coordinates": [ 178.259881835487477, -17.363480330586949 ] } },
{ "type": "Feature", "properties": { "fid": 291, "id": null, "habitat": "Coral" }, "geometry": { "type": "Point", "coordinates": [ 178.259092649643918, -17.366424725004606 ] } },
{ "type": "Feature", "properties": { "fid": 292, "id": null, "habitat": "Coral" }, "geometry": { "type": "Point", "coordinates": [ 178.255361952928808, -17.37087546394504 ] } },
{ "type": "Feature", "properties": { "fid": 293, "id": null, "habitat": "Coral" }, "geometry": { "type": "Point", "coordinates": [ 178.256725092113157, -17.372381843398212 ] } },
{ "type": "Feature", "properties": { "fid": 294, "id": null, "habitat": "Coral" }, "geometry": { "type": "Point", "coordinates": [ 178.249837652023785, -17.351359883345285 ] } },
{ "type": "Feature", "properties": { "fid": 295, "id": null, "habitat": "Coral" }, "geometry": { "type": "Point", "coordinates": [ 178.253353116236099, -17.353756645515954 ] } },
{ "type": "Feature", "properties": { "fid": 296, "id": null, "habitat": "Coral" }, "geometry": { "type": "Point", "coordinates": [ 178.244313351118763, -17.345607526330738 ] } },
{ "type": "Feature", "properties": { "fid": 297, "id": null, "habitat": "Deep Water" }, "geometry": { "type": "Point", "coordinates": [ 178.248402768671809, -17.296157215029936 ] } },
{ "type": "Feature", "properties": { "fid": 298, "id": null, "habitat": "Deep Water" }, "geometry": { "type": "Point", "coordinates": [ 178.236636725185804, -17.291773166033838 ] } },
{ "type": "Feature", "properties": { "fid": 299, "id": null, "habitat": "Deep Water" }, "geometry": { "type": "Point", "coordinates": [ 178.237497655196989, -17.272317689033894 ] } },
{ "type": "Feature", "properties": { "fid": 300, "id": null, "habitat": "Deep Water" }, "geometry": { "type": "Point", "coordinates": [ 178.227166495062903, -17.266288814373318 ] } },
{ "type": "Feature", "properties": { "fid": 301, "id": null, "habitat": "Deep Water" }, "geometry": { "type": "Point", "coordinates": [ 178.205930221453968, -17.251763897632951 ] } },
{ "type": "Feature", "properties": { "fid": 302, "id": null, "habitat": "Deep Water" }, "geometry": { "type": "Point", "coordinates": [ 178.198181851353411, -17.242445424353676 ] } },
{ "type": "Feature", "properties": { "fid": 303, "id": null, "habitat": "Deep Water" }, "geometry": { "type": "Point", "coordinates": [ 178.176084647733347, -17.249845426892591 ] } },
{ "type": "Feature", "properties": { "fid": 304, "id": null, "habitat": "Deep Water" }, "geometry": { "type": "Point", "coordinates": [ 178.161161860872994, -17.250119495362462 ] } },
{ "type": "Feature", "properties": { "fid": 305, "id": null, "habitat": "Deep Water" }, "geometry": { "type": "Point", "coordinates": [ 178.14681302735346, -17.250119495362462 ] } },
{ "type": "Feature", "properties": { "fid": 306, "id": null, "habitat": "Deep Water" }, "geometry": { "type": "Point", "coordinates": [ 178.133612100515506, -17.262178104954941 ] } },
{ "type": "Feature", "properties": { "fid": 307, "id": null, "habitat": "Deep Water" }, "geometry": { "type": "Point", "coordinates": [ 178.123280940381363, -17.276702201264754 ] } },
{ "type": "Feature", "properties": { "fid": 308, "id": null, "habitat": "Deep Water" }, "geometry": { "type": "Point", "coordinates": [ 178.106349316828329, -17.285744928153051 ] } },
{ "type": "Feature", "properties": { "fid": 309, "id": null, "habitat": "Coral" }, "geometry": { "type": "Point", "coordinates": [ 178.170632090995895, -17.287663025255195 ] } },
{ "type": "Feature", "properties": { "fid": 310, "id": null, "habitat": "Rock" }, "geometry": { "type": "Point", "coordinates": [ 178.143118202722178, -17.301328888534378 ] } },
{ "type": "Feature", "properties": { "fid": 311, "id": null, "habitat": "Rock" }, "geometry": { "type": "Point", "coordinates": [ 178.144553086074097, -17.301089145294267 ] } },
{ "type": "Feature", "properties": { "fid": 312, "id": null, "habitat": "Rock" }, "geometry": { "type": "Point", "coordinates": [ 178.131746752157909, -17.304299966327321 ] } },
{ "type": "Feature", "properties": { "fid": 313, "id": null, "habitat": "Rock" }, "geometry": { "type": "Point", "coordinates": [ 178.128051927526627, -17.304436960111232 ] } },
{ "type": "Feature", "properties": { "fid": 314, "id": null, "habitat": "Rock" }, "geometry": { "type": "Point", "coordinates": [ 178.120734022431662, -17.309026192896521 ] } },
{ "type": "Feature", "properties": { "fid": 315, "id": null, "habitat": "Rock" }, "geometry": { "type": "Point", "coordinates": [ 178.123280940381363, -17.308375487754176 ] } },
{ "type": "Feature", "properties": { "fid": 316, "id": null, "habitat": "Rock" }, "geometry": { "type": "Point", "coordinates": [ 178.113451989420469, -17.309060440471796 ] } },
{ "type": "Feature", "properties": { "fid": 317, "id": null, "habitat": "Coral" }, "geometry": { "type": "Point", "coordinates": [ 178.109371539888372, -17.308872078728829 ] } },
{ "type": "Feature", "properties": { "fid": 318, "id": null, "habitat": "Coral" }, "geometry": { "type": "Point", "coordinates": [ 178.118088456251456, -17.309454287128936 ] } },
{ "type": "Feature", "properties": { "fid": 319, "id": null, "habitat": "Rock" }, "geometry": { "type": "Point", "coordinates": [ 178.114622316154396, -17.307151128414322 ] } },
{ "type": "Feature", "properties": { "fid": 320, "id": null, "habitat": "Rock" }, "geometry": { "type": "Point", "coordinates": [ 178.115877839087347, -17.306889987779957 ] } },
{ "type": "Feature", "properties": { "fid": 321, "id": null, "habitat": "Rock" }, "geometry": { "type": "Point", "coordinates": [ 178.115792642888323, -17.306020943326047 ] } },
{ "type": "Feature", "properties": { "fid": 322, "id": null, "habitat": "Rock" }, "geometry": { "type": "Point", "coordinates": [ 178.11654595664811, -17.305579998017723 ] } },
{ "type": "Feature", "properties": { "fid": 323, "id": null, "habitat": "Coral" }, "geometry": { "type": "Point", "coordinates": [ 178.108003916693491, -17.307198219308912 ] } },
{ "type": "Feature", "properties": { "fid": 324, "id": null, "habitat": "Coral" }, "geometry": { "type": "Point", "coordinates": [ 178.105008597696298, -17.307455078521677 ] } },
{ "type": "Feature", "properties": { "fid": 325, "id": null, "habitat": "Coral" }, "geometry": { "type": "Point", "coordinates": [ 178.102712784333164, -17.306872863790971 ] } },
{ "type": "Feature", "properties": { "fid": 326, "id": null, "habitat": "Rock" }, "geometry": { "type": "Point", "coordinates": [ 178.106600421414839, -17.307572805540946 ] } },
{ "type": "Feature", "properties": { "fid": 327, "id": null, "habitat": "Coral" }, "geometry": { "type": "Point", "coordinates": [ 178.122381896281183, -17.307089054034833 ] } },
{ "type": "Feature", "properties": { "fid": 328, "id": null, "habitat": "Coral" }, "geometry": { "type": "Point", "coordinates": [ 178.119583873744887, -17.306455466066399 ] } },
{ "type": "Feature", "properties": { "fid": 329, "id": null, "habitat": "Coral" }, "geometry": { "type": "Point", "coordinates": [ 178.124767389853758, -17.305993116711637 ] } },
{ "type": "Feature", "properties": { "fid": 330, "id": null, "habitat": "Rock" }, "geometry": { "type": "Point", "coordinates": [ 178.135026805820246, -17.303424488017146 ] } },
{ "type": "Feature", "properties": { "fid": 331, "id": null, "habitat": "Coral" }, "geometry": { "type": "Point", "coordinates": [ 178.150900202901283, -17.296334886688374 ] } },
{ "type": "Feature", "properties": { "fid": 332, "id": null, "habitat": "Coral" }, "geometry": { "type": "Point", "coordinates": [ 178.157769706948756, -17.29489638351329 ] } },
{ "type": "Feature", "properties": { "fid": 333, "id": null, "habitat": "Rock" }, "geometry": { "type": "Point", "coordinates": [ 178.150989883110753, -17.299434480304207 ] } },
{ "type": "Feature", "properties": { "fid": 334, "id": null, "habitat": "Rock" }, "geometry": { "type": "Point", "coordinates": [ 178.142299870810433, -17.299391668593362 ] } },
{ "type": "Feature", "properties": { "fid": 335, "id": null, "habitat": "Coral" }, "geometry": { "type": "Point", "coordinates": [ 178.15396726606599, -17.293286616627043 ] } },
{ "type": "Feature", "properties": { "fid": 336, "id": null, "habitat": "Coral" }, "geometry": { "type": "Point", "coordinates": [ 178.154720579825778, -17.290752061502275 ] } },
{ "type": "Feature", "properties": { "fid": 337, "id": null, "habitat": "Coral" }, "geometry": { "type": "Point", "coordinates": [ 178.149196278920726, -17.293012612350381 ] } },
{ "type": "Feature", "properties": { "fid": 338, "id": null, "habitat": "Coral" }, "geometry": { "type": "Point", "coordinates": [ 178.163114647434696, -17.296403386559057 ] } },
{ "type": "Feature", "properties": { "fid": 339, "id": null, "habitat": "Coral" }, "geometry": { "type": "Point", "coordinates": [ 178.167634529993336, -17.293218115596126 ] } },
{ "type": "Feature", "properties": { "fid": 340, "id": null, "habitat": "Coral" }, "geometry": { "type": "Point", "coordinates": [ 178.17559813259669, -17.290752061502275 ] } },
{ "type": "Feature", "properties": { "fid": 341, "id": null, "habitat": "Coral" }, "geometry": { "type": "Point", "coordinates": [ 178.177858073876052, -17.283970242389735 ] } },
{ "type": "Feature", "properties": { "fid": 342, "id": null, "habitat": "Coral" }, "geometry": { "type": "Point", "coordinates": [ 178.163249167748972, -17.286166654341351 ] } },
{ "type": "Feature", "properties": { "fid": 343, "id": null, "habitat": "Coral" }, "geometry": { "type": "Point", "coordinates": [ 178.167446201553474, -17.283803262631725 ] } },
{ "type": "Feature", "properties": { "fid": 344, "id": null, "habitat": "Coral" }, "geometry": { "type": "Point", "coordinates": [ 178.145008213137288, -17.274657678515354 ] } },
{ "type": "Feature", "properties": { "fid": 345, "id": null, "habitat": "Coral" }, "geometry": { "type": "Point", "coordinates": [ 178.130695251701553, -17.287091451534849 ] } },
{ "type": "Feature", "properties": { "fid": 346, "id": null, "habitat": "Coral" }, "geometry": { "type": "Point", "coordinates": [ 178.122220471904058, -17.287733669074946 ] } },
{ "type": "Feature", "properties": { "fid": 347, "id": null, "habitat": "Coral" }, "geometry": { "type": "Point", "coordinates": [ 178.126309889457104, -17.285216163496283 ] } },
{ "type": "Feature", "properties": { "fid": 348, "id": null, "habitat": "Coral" }, "geometry": { "type": "Point", "coordinates": [ 178.132632344226664, -17.281979320030441 ] } },
{ "type": "Feature", "properties": { "fid": 349, "id": null, "habitat": "Coral" }, "geometry": { "type": "Point", "coordinates": [ 178.137690308042295, -17.27750929981033 ] } },
{ "type": "Feature", "properties": { "fid": 350, "id": null, "habitat": "Rock" }, "geometry": { "type": "Point", "coordinates": [ 178.142533039355129, -17.280540704672092 ] } },
{ "type": "Feature", "properties": { "fid": 351, "id": null, "habitat": "Rock" }, "geometry": { "type": "Point", "coordinates": [ 178.143420873429164, -17.279564494993377 ] } },
{ "type": "Feature", "properties": { "fid": 352, "id": null, "habitat": "Rock" }, "geometry": { "type": "Point", "coordinates": [ 178.133789218929195, -17.283520681157835 ] } },
{ "type": "Feature", "properties": { "fid": 353, "id": null, "habitat": "Rock" }, "geometry": { "type": "Point", "coordinates": [ 178.126552026022779, -17.288632769867228 ] } },
{ "type": "Feature", "properties": { "fid": 354, "id": null, "habitat": "Rock" }, "geometry": { "type": "Point", "coordinates": [ 178.119906722499081, -17.29312820795435 ] } },
{ "type": "Feature", "properties": { "fid": 355, "id": null, "habitat": "Coral" }, "geometry": { "type": "Point", "coordinates": [ 178.111593367078683, -17.29395021904411 ] } },
{ "type": "Feature", "properties": { "fid": 356, "id": null, "habitat": "Coral" }, "geometry": { "type": "Point", "coordinates": [ 178.106481595137353, -17.295157541175222 ] } },
{ "type": "Feature", "properties": { "fid": 357, "id": null, "habitat": "Rock" }, "geometry": { "type": "Point", "coordinates": [ 178.111970023958577, -17.295491479940637 ] } },
{ "type": "Feature", "properties": { "fid": 358, "id": null, "habitat": "Rock" }, "geometry": { "type": "Point", "coordinates": [ 178.103064779155517, -17.29703272792749 ] } },
{ "type": "Feature", "properties": { "fid": 359, "id": null, "habitat": "Coral" }, "geometry": { "type": "Point", "coordinates": [ 178.100266756619163, -17.295851105625641 ] } },
{ "type": "Feature", "properties": { "fid": 360, "id": null, "habitat": "Coral" }, "geometry": { "type": "Point", "coordinates": [ 178.109145097359402, -17.29829140420625 ] } },
{ "type": "Feature", "properties": { "fid": 361, "id": null, "habitat": "Coral" }, "geometry": { "type": "Point", "coordinates": [ 178.114875662746272, -17.296673104551974 ] } },
{ "type": "Feature", "properties": { "fid": 362, "id": null, "habitat": "Coral" }, "geometry": { "type": "Point", "coordinates": [ 178.119287929053542, -17.294335535478471 ] } },
{ "type": "Feature", "properties": { "fid": 363, "id": null, "habitat": "Coral" }, "geometry": { "type": "Point", "coordinates": [ 178.102392177584278, -17.299241827526927 ] } },
{ "type": "Feature", "properties": { "fid": 364, "id": null, "habitat": "Rock" }, "geometry": { "type": "Point", "coordinates": [ 178.10037437287059, -17.30213801966282 ] } },
{ "type": "Feature", "properties": { "fid": 365, "id": null, "habitat": "Rock" }, "geometry": { "type": "Point", "coordinates": [ 178.099304936372334, -17.302831557797042 ] } },
{ "type": "Feature", "properties": { "fid": 366, "id": null, "habitat": "Coral" }, "geometry": { "type": "Point", "coordinates": [ 178.100340742791985, -17.300982116961187 ] } },
{ "type": "Feature", "properties": { "fid": 367, "id": null, "habitat": "Coral" }, "geometry": { "type": "Point", "coordinates": [ 178.101739754060162, -17.296512558175248 ] } },
{ "type": "Feature", "properties": { "fid": 368, "id": null, "habitat": "Coral" }, "geometry": { "type": "Point", "coordinates": [ 178.10889623477803, -17.29466305381332 ] } },
{ "type": "Feature", "properties": { "fid": 369, "id": null, "habitat": "Coral" }, "geometry": { "type": "Point", "coordinates": [ 178.096977734935876, -17.294329113544507 ] } },
{ "type": "Feature", "properties": { "fid": 370, "id": null, "habitat": "Rock" }, "geometry": { "type": "Point", "coordinates": [ 178.099802661535023, -17.296859338173473 ] } },
{ "type": "Feature", "properties": { "fid": 371, "id": null, "habitat": "Rock" }, "geometry": { "type": "Point", "coordinates": [ 178.101013344363224, -17.297951048714985 ] } },
{ "type": "Feature", "properties": { "fid": 372, "id": null, "habitat": "Rock" }, "geometry": { "type": "Point", "coordinates": [ 178.09673559837023, -17.296294214878092 ] } },
{ "type": "Feature", "properties": { "fid": 373, "id": null, "habitat": "Deep Water" }, "geometry": { "type": "Point", "coordinates": [ 178.094502561153746, -17.298747351141753 ] } },
{ "type": "Feature", "properties": { "fid": 374, "id": null, "habitat": "Deep Water" }, "geometry": { "type": "Point", "coordinates": [ 178.092525112534332, -17.295754777386076 ] } },
{ "type": "Feature", "properties": { "fid": 375, "id": null, "habitat": "Deep Water" }, "geometry": { "type": "Point", "coordinates": [ 178.096036092736171, -17.303704898394113 ] } },
{ "type": "Feature", "properties": { "fid": 376, "id": null, "habitat": "Coral" }, "geometry": { "type": "Point", "coordinates": [ 178.084131044925385, -17.310023650913536 ] } },
{ "type": "Feature", "properties": { "fid": 377, "id": null, "habitat": "Coral" }, "geometry": { "type": "Point", "coordinates": [ 178.083350827102777, -17.314004867198349 ] } },
{ "type": "Feature", "properties": { "fid": 378, "id": null, "habitat": "Coral" }, "geometry": { "type": "Point", "coordinates": [ 178.080364476126533, -17.31716409359305 ] } },
{ "type": "Feature", "properties": { "fid": 379, "id": null, "habitat": "Rock" }, "geometry": { "type": "Point", "coordinates": [ 178.080714228943577, -17.319270214349817 ] } },
{ "type": "Feature", "properties": { "fid": 380, "id": null, "habitat": "Rock" }, "geometry": { "type": "Point", "coordinates": [ 178.082516801154469, -17.320734210896806 ] } },
{ "type": "Feature", "properties": { "fid": 381, "id": null, "habitat": "Rock" }, "geometry": { "type": "Point", "coordinates": [ 178.080875653320703, -17.322621978697718 ] } },
{ "type": "Feature", "properties": { "fid": 382, "id": null, "habitat": "Rock" }, "geometry": { "type": "Point", "coordinates": [ 178.083135594600037, -17.319860951202475 ] } },
{ "type": "Feature", "properties": { "fid": 383, "id": null, "habitat": "Rock" }, "geometry": { "type": "Point", "coordinates": [ 178.084346277428239, -17.318050208316528 ] } },
{ "type": "Feature", "properties": { "fid": 384, "id": null, "habitat": "Rock" }, "geometry": { "type": "Point", "coordinates": [ 178.085180303376546, -17.317138409044585 ] } },
{ "type": "Feature", "properties": { "fid": 385, "id": null, "habitat": "Rock" }, "geometry": { "type": "Point", "coordinates": [ 178.086646574801847, -17.31483962741903 ] } },
{ "type": "Feature", "properties": { "fid": 386, "id": null, "habitat": "Rock" }, "geometry": { "type": "Point", "coordinates": [ 178.086727286990367, -17.31392781221761 ] } },
{ "type": "Feature", "properties": { "fid": 387, "id": null, "habitat": "Rock" }, "geometry": { "type": "Point", "coordinates": [ 178.086633122770422, -17.312784826209889 ] } },
{ "type": "Feature", "properties": { "fid": 388, "id": null, "habitat": "Rock" }, "geometry": { "type": "Point", "coordinates": [ 178.087198108090234, -17.310293348932891 ] } },
{ "type": "Feature", "properties": { "fid": 389, "id": null, "habitat": "Rock" }, "geometry": { "type": "Point", "coordinates": [ 178.087830353567199, -17.30927876861422 ] } },
{ "type": "Feature", "properties": { "fid": 390, "id": null, "habitat": "Rock" }, "geometry": { "type": "Point", "coordinates": [ 178.08957911765242, -17.307673408570423 ] } },
{ "type": "Feature", "properties": { "fid": 391, "id": null, "habitat": "Rock" }, "geometry": { "type": "Point", "coordinates": [ 178.086982875587523, -17.306864301795898 ] } },
{ "type": "Feature", "properties": { "fid": 392, "id": null, "habitat": "Rock" }, "geometry": { "type": "Point", "coordinates": [ 178.085973973230665, -17.304462646434366 ] } },
{ "type": "Feature", "properties": { "fid": 393, "id": null, "habitat": "Rock" }, "geometry": { "type": "Point", "coordinates": [ 178.087816901535859, -17.302587535418382 ] } },
{ "type": "Feature", "properties": { "fid": 394, "id": null, "habitat": "Rock" }, "geometry": { "type": "Point", "coordinates": [ 178.082019075991866, -17.30294714723183 ] } },
{ "type": "Feature", "properties": { "fid": 395, "id": null, "habitat": "Rock" }, "geometry": { "type": "Point", "coordinates": [ 178.083821648202758, -17.301611442666225 ] } },
{ "type": "Feature", "properties": { "fid": 396, "id": null, "habitat": "Rock" }, "geometry": { "type": "Point", "coordinates": [ 178.085476248067948, -17.303242542124014 ] } },
{ "type": "Feature", "properties": { "fid": 397, "id": null, "habitat": "Rock" }, "geometry": { "type": "Point", "coordinates": [ 178.08028376393807, -17.300532597282213 ] } },
{ "type": "Feature", "properties": { "fid": 398, "id": null, "habitat": "Rock" }, "geometry": { "type": "Point", "coordinates": [ 178.080337572063769, -17.303152639380965 ] } },
{ "type": "Feature", "properties": { "fid": 399, "id": null, "habitat": "Coral" }, "geometry": { "type": "Point", "coordinates": [ 178.081763487394824, -17.313298528665761 ] } },
{ "type": "Feature", "properties": { "fid": 400, "id": null, "habitat": "Coral" }, "geometry": { "type": "Point", "coordinates": [ 178.088751817719896, -17.300083076504738 ] } },
{ "type": "Feature", "properties": { "fid": 401, "id": null, "habitat": "Coral" }, "geometry": { "type": "Point", "coordinates": [ 178.085065961109592, -17.299800520025226 ] } },
{ "type": "Feature", "properties": { "fid": 402, "id": null, "habitat": "Coral" }, "geometry": { "type": "Point", "coordinates": [ 178.082752211704531, -17.299286779859663 ] } },
{ "type": "Feature", "properties": { "fid": 403, "id": null, "habitat": "Coral" }, "geometry": { "type": "Point", "coordinates": [ 178.091603648381948, -17.303473720404355 ] } },
{ "type": "Feature", "properties": { "fid": 404, "id": null, "habitat": "Coral" }, "geometry": { "type": "Point", "coordinates": [ 178.187489728376249, -17.294483239897719 ] } },
{ "type": "Feature", "properties": { "fid": 405, "id": null, "habitat": "Coral" }, "geometry": { "type": "Point", "coordinates": [ 178.188296850261736, -17.298798725373505 ] } },
{ "type": "Feature", "properties": { "fid": 406, "id": null, "habitat": "Coral" }, "geometry": { "type": "Point", "coordinates": [ 178.105163296057896, -17.341948008900623 ] } },
{ "type": "Feature", "properties": { "fid": 407, "id": null, "habitat": "Coral" }, "geometry": { "type": "Point", "coordinates": [ 178.116489906517387, -17.346724627634433 ] } },
{ "type": "Feature", "properties": { "fid": 408, "id": null, "habitat": "Coral" }, "geometry": { "type": "Point", "coordinates": [ 178.11312689866125, -17.34451609894673 ] } },
{ "type": "Feature", "properties": { "fid": 409, "id": null, "habitat": "Coral" }, "geometry": { "type": "Point", "coordinates": [ 178.111028381759013, -17.343488867241923 ] } },
{ "type": "Feature", "properties": { "fid": 410, "id": null, "habitat": "Coral" }, "geometry": { "type": "Point", "coordinates": [ 178.118776751859571, -17.347700480677219 ] } },
{ "type": "Feature", "properties": { "fid": 411, "id": null, "habitat": "Sand" }, "geometry": { "type": "Point", "coordinates": [ 178.119530065619358, -17.353273015672418 ] } },
{ "type": "Feature", "properties": { "fid": 412, "id": null, "habitat": "Sand" }, "geometry": { "type": "Point", "coordinates": [ 178.116543714643086, -17.35447994794557 ] } },
{ "type": "Feature", "properties": { "fid": 413, "id": null, "habitat": "Mangrove" }, "geometry": { "type": "Point", "coordinates": [ 178.111850637179771, -17.352754610142611 ] } },
{ "type": "Feature", "properties": { "fid": 414, "id": null, "habitat": "Rock" }, "geometry": { "type": "Point", "coordinates": [ 178.111470617291985, -17.352285957442483 ] } },
{ "type": "Feature", "properties": { "fid": 415, "id": null, "habitat": "Rock" }, "geometry": { "type": "Point", "coordinates": [ 178.111914394203836, -17.350933358043772 ] } },
{ "type": "Feature", "properties": { "fid": 416, "id": null, "habitat": "Coral" }, "geometry": { "type": "Point", "coordinates": [ 178.112447991450324, -17.350760019161715 ] } },
{ "type": "Feature", "properties": { "fid": 417, "id": null, "habitat": "Coral" }, "geometry": { "type": "Point", "coordinates": [ 178.113185611173435, -17.351081016962215 ] } },
{ "type": "Feature", "properties": { "fid": 418, "id": null, "habitat": "Coral" }, "geometry": { "type": "Point", "coordinates": [ 178.113781984566572, -17.351404154180532 ] } },
{ "type": "Feature", "properties": { "fid": 419, "id": null, "habitat": "Coral" }, "geometry": { "type": "Point", "coordinates": [ 178.114082413268363, -17.351778650244363 ] } },
{ "type": "Feature", "properties": { "fid": 420, "id": null, "habitat": "Coral" }, "geometry": { "type": "Point", "coordinates": [ 178.114459070148229, -17.352134955789381 ] } },
{ "type": "Feature", "properties": { "fid": 421, "id": null, "habitat": "Coral" }, "geometry": { "type": "Point", "coordinates": [ 178.114721384761026, -17.352406731925825 ] } },
{ "type": "Feature", "properties": { "fid": 422, "id": null, "habitat": "Coral" }, "geometry": { "type": "Point", "coordinates": [ 178.114871599111922, -17.352680647624268 ] } },
{ "type": "Feature", "properties": { "fid": 423, "id": null, "habitat": "Rock" }, "geometry": { "type": "Point", "coordinates": [ 178.115647332924055, -17.353320495981777 ] } },
{ "type": "Feature", "properties": { "fid": 424, "id": null, "habitat": "Seagrass" }, "geometry": { "type": "Point", "coordinates": [ 178.115916373552523, -17.353072260763685 ] } },
{ "type": "Feature", "properties": { "fid": 425, "id": null, "habitat": "Rock" }, "geometry": { "type": "Point", "coordinates": [ 178.115683205007855, -17.352113556076485 ] } },
{ "type": "Feature", "properties": { "fid": 426, "id": null, "habitat": "Rock" }, "geometry": { "type": "Point", "coordinates": [ 178.116310966474344, -17.351257565512984 ] } },
{ "type": "Feature", "properties": { "fid": 427, "id": null, "habitat": "Rock" }, "geometry": { "type": "Point", "coordinates": [ 178.11587153344783, -17.35126184547574 ] } },
{ "type": "Feature", "properties": { "fid": 428, "id": null, "habitat": "Rock" }, "geometry": { "type": "Point", "coordinates": [ 178.116866983773207, -17.350654089764237 ] } },
{ "type": "Feature", "properties": { "fid": 429, "id": null, "habitat": "Rock" }, "geometry": { "type": "Point", "coordinates": [ 178.117575457428245, -17.350452930740005 ] } },
{ "type": "Feature", "properties": { "fid": 430, "id": null, "habitat": "Coral" }, "geometry": { "type": "Point", "coordinates": [ 178.118736816141194, -17.351077806986993 ] } },
{ "type": "Feature", "properties": { "fid": 431, "id": null, "habitat": "Sand" }, "geometry": { "type": "Point", "coordinates": [ 178.118880304476392, -17.353765606565737 ] } },
{ "type": "Feature", "properties": { "fid": 432, "id": null, "habitat": "Coral" }, "geometry": { "type": "Point", "coordinates": [ 178.113929956912131, -17.353286256661331 ] } },
{ "type": "Feature", "properties": { "fid": 433, "id": null, "habitat": "Coral" }, "geometry": { "type": "Point", "coordinates": [ 178.112517493612586, -17.354621585420826 ] } },
{ "type": "Feature", "properties": { "fid": 434, "id": null, "habitat": "Coral" }, "geometry": { "type": "Point", "coordinates": [ 178.113019702785749, -17.356299292383916 ] } },
{ "type": "Feature", "properties": { "fid": 435, "id": null, "habitat": "Rock" }, "geometry": { "type": "Point", "coordinates": [ 178.115559894719723, -17.357129580456593 ] } },
{ "type": "Feature", "properties": { "fid": 436, "id": null, "habitat": "Rock" }, "geometry": { "type": "Point", "coordinates": [ 178.115905163526264, -17.356971226836041 ] } },
{ "type": "Feature", "properties": { "fid": 437, "id": null, "habitat": "Coral" }, "geometry": { "type": "Point", "coordinates": [ 178.114864873096138, -17.345667848904885 ] } },
{ "type": "Feature", "properties": { "fid": 438, "id": null, "habitat": "Coral" }, "geometry": { "type": "Point", "coordinates": [ 178.180618402699508, -17.263677213151372 ] } },
{ "type": "Feature", "properties": { "fid": 439, "id": null, "habitat": "Coral" }, "geometry": { "type": "Point", "coordinates": [ 178.185783982766509, -17.255729646360422 ] } },
{ "type": "Feature", "properties": { "fid": 440, "id": null, "habitat": "Coral" }, "geometry": { "type": "Point", "coordinates": [ 178.179111775179962, -17.257716570167783 ] } },
{ "type": "Feature", "properties": { "fid": 441, "id": null, "habitat": "Coral" }, "geometry": { "type": "Point", "coordinates": [ 178.174520148453666, -17.258435968337317 ] } },
{ "type": "Feature", "properties": { "fid": 442, "id": null, "habitat": "Coral" }, "geometry": { "type": "Point", "coordinates": [ 178.188366772800038, -17.257887855700769 ] } },
{ "type": "Feature", "properties": { "fid": 443, "id": null, "habitat": "Coral" }, "geometry": { "type": "Point", "coordinates": [ 178.168421894207853, -17.259292391070787 ] } },
{ "type": "Feature", "properties": { "fid": 444, "id": null, "habitat": "Coral" }, "geometry": { "type": "Point", "coordinates": [ 178.162036663291673, -17.257785084400066 ] } },
{ "type": "Feature", "properties": { "fid": 445, "id": null, "habitat": "Deep Water" }, "geometry": { "type": "Point", "coordinates": [ 178.15529271153747, -17.261142250601573 ] } },
{ "type": "Feature", "properties": { "fid": 446, "id": null, "habitat": "Coral" }, "geometry": { "type": "Point", "coordinates": [ 178.145858353498369, -17.262889323118689 ] } },
{ "type": "Feature", "properties": { "fid": 447, "id": null, "habitat": "Coral" }, "geometry": { "type": "Point", "coordinates": [ 178.153391491096158, -17.266657462383161 ] } },
{ "type": "Feature", "properties": { "fid": 448, "id": null, "habitat": "Coral" }, "geometry": { "type": "Point", "coordinates": [ 178.148512887699468, -17.268952564008025 ] } },
{ "type": "Feature", "properties": { "fid": 449, "id": null, "habitat": "Coral" }, "geometry": { "type": "Point", "coordinates": [ 178.142235273034743, -17.270391269856685 ] } },
{ "type": "Feature", "properties": { "fid": 450, "id": null, "habitat": "Coral" }, "geometry": { "type": "Point", "coordinates": [ 178.207737698051432, -17.265527028690951 ] } },
{ "type": "Feature", "properties": { "fid": 451, "id": null, "habitat": "Coral" }, "geometry": { "type": "Point", "coordinates": [ 178.209316069738577, -17.267856399632873 ] } },
{ "type": "Feature", "properties": { "fid": 452, "id": null, "habitat": "Coral" }, "geometry": { "type": "Point", "coordinates": [ 178.221871299068198, -17.251002051951268 ] } },
{ "type": "Feature", "properties": { "fid": 453, "id": null, "habitat": "Coral" }, "geometry": { "type": "Point", "coordinates": [ 178.219360253202268, -17.248261362043259 ] } },
{ "type": "Feature", "properties": { "fid": 454, "id": null, "habitat": "Coral" }, "geometry": { "type": "Point", "coordinates": [ 178.25164512862122, -17.254427857088537 ] } },
{ "type": "Feature", "properties": { "fid": 455, "id": null, "habitat": "Coral" }, "geometry": { "type": "Point", "coordinates": [ 178.254945360330709, -17.259018336228781 ] } },
{ "type": "Feature", "properties": { "fid": 456, "id": null, "habitat": "Coral" }, "geometry": { "type": "Point", "coordinates": [ 178.263339427939684, -17.265869585087302 ] } },
{ "type": "Feature", "properties": { "fid": 457, "id": null, "habitat": "Coral" }, "geometry": { "type": "Point", "coordinates": [ 178.268218031336346, -17.27409074760676 ] } },
{ "type": "Feature", "properties": { "fid": 458, "id": null, "habitat": "Coral" }, "geometry": { "type": "Point", "coordinates": [ 178.272163960554224, -17.278201191322033 ] } },
{ "type": "Feature", "properties": { "fid": 459, "id": null, "habitat": "Coral" }, "geometry": { "type": "Point", "coordinates": [ 178.27130303054301, -17.297724546067823 ] } },
{ "type": "Feature", "properties": { "fid": 460, "id": null, "habitat": "Coral" }, "geometry": { "type": "Point", "coordinates": [ 178.260254428732964, -17.287312347862361 ] } },
{ "type": "Feature", "properties": { "fid": 461, "id": null, "habitat": "Coral" }, "geometry": { "type": "Point", "coordinates": [ 178.305238021816734, -17.299574019655118 ] } },
{ "type": "Feature", "properties": { "fid": 462, "id": null, "habitat": "Coral" }, "geometry": { "type": "Point", "coordinates": [ 178.302296510945268, -17.310601976091633 ] } },
{ "type": "Feature", "properties": { "fid": 463, "id": null, "habitat": "Coral" }, "geometry": { "type": "Point", "coordinates": [ 178.305883719325152, -17.306081278903434 ] } },
{ "type": "Feature", "properties": { "fid": 464, "id": null, "habitat": "Coral" }, "geometry": { "type": "Point", "coordinates": [ 178.295050350017902, -17.315670504380048 ] } },
{ "type": "Feature", "properties": { "fid": 465, "id": null, "habitat": "Coral" }, "geometry": { "type": "Point", "coordinates": [ 178.289310816610055, -17.321149837176414 ] } },
{ "type": "Feature", "properties": { "fid": 466, "id": null, "habitat": "Coral" }, "geometry": { "type": "Point", "coordinates": [ 178.285077910721839, -17.317588289444487 ] } },
{ "type": "Feature", "properties": { "fid": 467, "id": null, "habitat": "Coral" }, "geometry": { "type": "Point", "coordinates": [ 178.290530467459234, -17.304642851944156 ] } },
{ "type": "Feature", "properties": { "fid": 468, "id": null, "habitat": "Coral" }, "geometry": { "type": "Point", "coordinates": [ 178.295696047526263, -17.289093423527202 ] } },
{ "type": "Feature", "properties": { "fid": 469, "id": null, "habitat": "Coral" }, "geometry": { "type": "Point", "coordinates": [ 178.28199291151509, -17.283681640260763 ] } },
{ "type": "Feature", "properties": { "fid": 470, "id": null, "habitat": "Coral" }, "geometry": { "type": "Point", "coordinates": [ 178.307892556017862, -17.289778448040522 ] } },
{ "type": "Feature", "properties": { "fid": 471, "id": null, "habitat": "Coral" }, "geometry": { "type": "Point", "coordinates": [ 178.337522897235715, -17.290737478076306 ] } },
{ "type": "Feature", "properties": { "fid": 472, "id": null, "habitat": "Coral" }, "geometry": { "type": "Point", "coordinates": [ 178.313201624420032, -17.355255007200729 ] } },
{ "type": "Feature", "properties": { "fid": 473, "id": null, "habitat": "Coral" }, "geometry": { "type": "Point", "coordinates": [ 178.31951511116867, -17.364430817732078 ] } },
{ "type": "Feature", "properties": { "fid": 474, "id": null, "habitat": "Coral" }, "geometry": { "type": "Point", "coordinates": [ 178.322456622040164, -17.376002639985973 ] } },
{ "type": "Feature", "properties": { "fid": 475, "id": null, "habitat": "Coral" }, "geometry": { "type": "Point", "coordinates": [ 178.33981871059882, -17.339778346063913 ] } },
{ "type": "Feature", "properties": { "fid": 476, "id": null, "habitat": "Coral" }, "geometry": { "type": "Point", "coordinates": [ 178.188079796129642, -17.312519814043043 ] } },
{ "type": "Feature", "properties": { "fid": 477, "id": null, "habitat": "Coral" }, "geometry": { "type": "Point", "coordinates": [ 178.192384446185514, -17.313684205894145 ] } },
{ "type": "Feature", "properties": { "fid": 478, "id": null, "habitat": "Coral" }, "geometry": { "type": "Point", "coordinates": [ 178.187864563626846, -17.318341699529626 ] } },
{ "type": "Feature", "properties": { "fid": 479, "id": null, "habitat": "Coral" }, "geometry": { "type": "Point", "coordinates": [ 178.190375609492747, -17.320396438605936 ] } },
{ "type": "Feature", "properties": { "fid": 480, "id": null, "habitat": "Coral" }, "geometry": { "type": "Point", "coordinates": [ 178.194034562040258, -17.319780019295777 ] } },
{ "type": "Feature", "properties": { "fid": 481, "id": null, "habitat": "Coral" }, "geometry": { "type": "Point", "coordinates": [ 178.182914216062613, -17.311834874214473 ] } },
{ "type": "Feature", "properties": { "fid": 482, "id": null, "habitat": "Coral" }, "geometry": { "type": "Point", "coordinates": [ 178.181981541883857, -17.298615035671521 ] } },
{ "type": "Feature", "properties": { "fid": 483, "id": null, "habitat": "Coral" }, "geometry": { "type": "Point", "coordinates": [ 178.177102938487195, -17.2996425183198 ] } },
{ "type": "Feature", "properties": { "fid": 484, "id": null, "habitat": "Coral" }, "geometry": { "type": "Point", "coordinates": [ 178.197191305414549, -17.299574019655118 ] } },
{ "type": "Feature", "properties": { "fid": 485, "id": null, "habitat": "Coral" }, "geometry": { "type": "Point", "coordinates": [ 178.194895492051415, -17.302587936771253 ] } },
{ "type": "Feature", "properties": { "fid": 486, "id": null, "habitat": "Coral" }, "geometry": { "type": "Point", "coordinates": [ 178.198052235425706, -17.296971051498229 ] } },
{ "type": "Feature", "properties": { "fid": 487, "id": null, "habitat": "Rock" }, "geometry": { "type": "Point", "coordinates": [ 178.155745596595409, -17.338609839378542 ] } },
{ "type": "Feature", "properties": { "fid": 488, "id": null, "habitat": "Deep Water" }, "geometry": { "type": "Point", "coordinates": [ 178.161153313228226, -17.318988088674661 ] } },
{ "type": "Feature", "properties": { "fid": 489, "id": null, "habitat": "Deep Water" }, "geometry": { "type": "Point", "coordinates": [ 178.163233894088535, -17.302823396966158 ] } },
{ "type": "Feature", "properties": { "fid": 490, "id": null, "habitat": "Deep Water" }, "geometry": { "type": "Point", "coordinates": [ 178.180954703485156, -17.305357785797558 ] } },
{ "type": "Feature", "properties": { "fid": 491, "id": null, "habitat": "Coral" }, "geometry": { "type": "Point", "coordinates": [ 178.226153529071809, -17.301316446510093 ] } },
{ "type": "Feature", "properties": { "fid": 492, "id": null, "habitat": "Coral" }, "geometry": { "type": "Point", "coordinates": [ 178.224718645719832, -17.298302508561125 ] } },
{ "type": "Feature", "properties": { "fid": 493, "id": null, "habitat": "Coral" }, "geometry": { "type": "Point", "coordinates": [ 178.229812481619319, -17.304193341212013 ] } },
{ "type": "Feature", "properties": { "fid": 494, "id": null, "habitat": "Coral" }, "geometry": { "type": "Point", "coordinates": [ 178.235265038356715, -17.309262046186024 ] } },
{ "type": "Feature", "properties": { "fid": 495, "id": null, "habitat": null }, "geometry": { "type": "Point", "coordinates": [ 178.254277242770144, -17.33241192130054 ] } },
{ "type": "Feature", "properties": { "fid": 496, "id": null, "habitat": "Deep Water" }, "geometry": { "type": "Point", "coordinates": [ 178.264536658736546, -17.335288329195837 ] } },
{ "type": "Feature", "properties": { "fid": 497, "id": null, "habitat": "Deep Water" }, "geometry": { "type": "Point", "coordinates": [ 178.277378864736534, -17.329740930758483 ] } },
{ "type": "Feature", "properties": { "fid": 498, "id": null, "habitat": "Deep Water" }, "geometry": { "type": "Point", "coordinates": [ 178.279602933932125, -17.355832788672462 ] } },
{ "type": "Feature", "properties": { "fid": 499, "id": null, "habitat": "Deep Water" }, "geometry": { "type": "Point", "coordinates": [ 178.267621657943323, -17.368774616301856 ] } },
{ "type": "Feature", "properties": { "fid": 500, "id": null, "habitat": "Coral" }, "geometry": { "type": "Point", "coordinates": [ 178.236018352116531, -17.326145305212822 ] } },
{ "type": "Feature", "properties": { "fid": 501, "id": null, "habitat": "Coral" }, "geometry": { "type": "Point", "coordinates": [ 178.239569688412587, -17.329158786637151 ] } },
{ "type": "Feature", "properties": { "fid": 502, "id": null, "habitat": "Coral" }, "geometry": { "type": "Point", "coordinates": [ 178.231247364971239, -17.328850591943397 ] } },
{ "type": "Feature", "properties": { "fid": 503, "id": null, "habitat": "Coral" }, "geometry": { "type": "Point", "coordinates": [ 178.227122075334393, -17.329193030460086 ] } },
{ "type": "Feature", "properties": { "fid": 504, "id": null, "habitat": "Coral" }, "geometry": { "type": "Point", "coordinates": [ 178.222530448608126, -17.329638199577062 ] } },
{ "type": "Feature", "properties": { "fid": 505, "id": null, "habitat": "Coral" }, "geometry": { "type": "Point", "coordinates": [ 178.235910735865133, -17.3226180993762 ] } },
{ "type": "Feature", "properties": { "fid": 506, "id": null, "habitat": "Coral" }, "geometry": { "type": "Point", "coordinates": [ 178.239784920915383, -17.318371664639592 ] } },
{ "type": "Feature", "properties": { "fid": 507, "id": null, "habitat": "Coral" }, "geometry": { "type": "Point", "coordinates": [ 178.240358874256174, -17.315255267031699 ] } },
{ "type": "Feature", "properties": { "fid": 508, "id": null, "habitat": "Coral" }, "geometry": { "type": "Point", "coordinates": [ 178.24118393218356, -17.312070322568417 ] } },
{ "type": "Feature", "properties": { "fid": 509, "id": null, "habitat": "Coral" }, "geometry": { "type": "Point", "coordinates": [ 178.237919572557843, -17.310426458672623 ] } },
{ "type": "Feature", "properties": { "fid": 510, "id": null, "habitat": "Coral" }, "geometry": { "type": "Point", "coordinates": [ 178.23045817912768, -17.306898951117326 ] } },
{ "type": "Feature", "properties": { "fid": 511, "id": null, "habitat": "Coral" }, "geometry": { "type": "Point", "coordinates": [ 178.226906842831568, -17.299672486477579 ] } },
{ "type": "Feature", "properties": { "fid": 512, "id": null, "habitat": "Coral" }, "geometry": { "type": "Point", "coordinates": [ 178.222602192775724, -17.291452465967673 ] } },
{ "type": "Feature", "properties": { "fid": 513, "id": null, "habitat": "Coral" }, "geometry": { "type": "Point", "coordinates": [ 178.222638064859495, -17.290287933369193 ] } },
{ "type": "Feature", "properties": { "fid": 514, "id": null, "habitat": "Coral" }, "geometry": { "type": "Point", "coordinates": [ 178.224252308630497, -17.285869492682938 ] } },
{ "type": "Feature", "properties": { "fid": 515, "id": null, "habitat": "Coral" }, "geometry": { "type": "Point", "coordinates": [ 178.222315216105358, -17.287993097566794 ] } },
{ "type": "Feature", "properties": { "fid": 516, "id": null, "habitat": "Coral" }, "geometry": { "type": "Point", "coordinates": [ 178.226225273239436, -17.282135998907712 ] } },
{ "type": "Feature", "properties": { "fid": 517, "id": null, "habitat": "Coral" }, "geometry": { "type": "Point", "coordinates": [ 178.226619866161201, -17.280149338337573 ] } },
{ "type": "Feature", "properties": { "fid": 518, "id": null, "habitat": "Coral" }, "geometry": { "type": "Point", "coordinates": [ 178.227229691585791, -17.278059896341489 ] } },
{ "type": "Feature", "properties": { "fid": 519, "id": null, "habitat": "Coral" }, "geometry": { "type": "Point", "coordinates": [ 178.225077366557855, -17.276861025478844 ] } },
{ "type": "Feature", "properties": { "fid": 520, "id": null, "habitat": "Coral" }, "geometry": { "type": "Point", "coordinates": [ 178.220485739831588, -17.277922882923516 ] } },
{ "type": "Feature", "properties": { "fid": 521, "id": null, "habitat": "Coral" }, "geometry": { "type": "Point", "coordinates": [ 178.216755043116507, -17.281142671301446 ] } },
{ "type": "Feature", "properties": { "fid": 522, "id": null, "habitat": "Coral" }, "geometry": { "type": "Point", "coordinates": [ 178.212988474317626, -17.281622209435458 ] } },
{ "type": "Feature", "properties": { "fid": 523, "id": null, "habitat": "Coral" }, "geometry": { "type": "Point", "coordinates": [ 178.20943713802157, -17.280080832418445 ] } },
{ "type": "Feature", "properties": { "fid": 524, "id": null, "habitat": "Coral" }, "geometry": { "type": "Point", "coordinates": [ 178.207535917580202, -17.278059896341489 ] } },
{ "type": "Feature", "properties": { "fid": 525, "id": null, "habitat": "Coral" }, "geometry": { "type": "Point", "coordinates": [ 178.204522662541081, -17.27802564299655 ] } },
{ "type": "Feature", "properties": { "fid": 526, "id": null, "habitat": "Coral" }, "geometry": { "type": "Point", "coordinates": [ 178.202370337513173, -17.276347221292113 ] } },
{ "type": "Feature", "properties": { "fid": 527, "id": null, "habitat": "Coral" }, "geometry": { "type": "Point", "coordinates": [ 178.20003865206624, -17.277135053792474 ] } },
{ "type": "Feature", "properties": { "fid": 528, "id": null, "habitat": "Coral" }, "geometry": { "type": "Point", "coordinates": [ 178.261128810775688, -17.315460745424435 ] } },
{ "type": "Feature", "properties": { "fid": 529, "id": null, "habitat": "Deep Water" }, "geometry": { "type": "Point", "coordinates": [ 178.289682989479672, -17.328199957002393 ] } },
{ "type": "Feature", "properties": { "fid": 530, "id": null, "habitat": "Deep Water" }, "geometry": { "type": "Point", "coordinates": [ 178.249793232295332, -17.316282656697979 ] } },
{ "type": "Feature", "properties": { "fid": 531, "id": null, "habitat": "Deep Water" }, "geometry": { "type": "Point", "coordinates": [ 178.310345309747788, -17.37106844275764 ] } },
{ "type": "Feature", "properties": { "fid": 532, "id": null, "habitat": "Deep Water" }, "geometry": { "type": "Point", "coordinates": [ 178.306040659691945, -17.349977852168571 ] } },
{ "type": "Feature", "properties": { "fid": 533, "id": null, "habitat": "Deep Water" }, "geometry": { "type": "Point", "coordinates": [ 178.314362983133265, -17.343403665603933 ] } },
{ "type": "Feature", "properties": { "fid": 534, "id": null, "habitat": "Deep Water" }, "geometry": { "type": "Point", "coordinates": [ 178.326416003289694, -17.358743067657148 ] } },
{ "type": "Feature", "properties": { "fid": 535, "id": null, "habitat": "Deep Water" }, "geometry": { "type": "Point", "coordinates": [ 178.337608093434937, -17.372163991525266 ] } },
{ "type": "Feature", "properties": { "fid": 536, "id": null, "habitat": "Deep Water" }, "geometry": { "type": "Point", "coordinates": [ 178.336460186753385, -17.330528534573215 ] } },
{ "type": "Feature", "properties": { "fid": 537, "id": null, "habitat": "Deep Water" }, "geometry": { "type": "Point", "coordinates": [ 178.331007630015932, -17.346142938640241 ] } },
{ "type": "Feature", "properties": { "fid": 538, "id": null, "habitat": "Deep Water" }, "geometry": { "type": "Point", "coordinates": [ 178.342773673501966, -17.282033241127937 ] } },
{ "type": "Feature", "properties": { "fid": 539, "id": null, "habitat": "Deep Water" }, "geometry": { "type": "Point", "coordinates": [ 178.333016466708699, -17.29518577079784 ] } }
]
}
